id_restaurant,name,operator,brand,opening_hours,wheelchair,vegetarian,vegan,delivery,takeaway,internet_access,stars,capacity,drive_through,wikidata,brand_wikidata,siret,phone,website,facebook,smoking,com_insee,com_nom,region,code_region,departement,code_departement,commune,code_commune,latitude,longitude
0,Cha+,,,"Tu-Sa 11:00-20:00; Su 13:00-20:00",0,,,,,,,,,,,83037025000011,"+33 2 38 53 78 02",http://www.le-dream-s-coffee.com,,,45234,Orléans,"Centre-Val de Loire",24,Loiret,45,Orléans,45234,47.901149799961,1.9052942
1,Freshkin,,,,,1,,,,,,,,,,89256822100014,,,,,45234,Orléans,"Centre-Val de Loire",24,Loiret,45,Orléans,45234,47.915769999958,1.901334
2,"La Vinithèque au n°7",,,,1,,,,,no,,,,,,,,,,,45234,Orléans,"Centre-Val de Loire",24,Loiret,45,Orléans,45234,47.901402699961,1.9085654
3,KFC,,KFC,"Mo-Th 11:30-14:30, 18:30-22:00; Fr 11:30-14:30, 18:30-23:00; Sa-Su 11:30-23:00",,,,,1,,,,,,Q524757,,,https://www.kfc.fr/nos-restaurants/kfc-orleans-olivet,,,45234,Orléans,"Centre-Val de Loire",24,Loiret,45,Orléans,45234,47.883855899965,1.8978531
4,"Crêperie bretonne",,,"Mo-We 11:45-13:45,18:45-21:45; Th 11:45-14:00; Fr-Sa 11:45-13:45,18:45-22:00; Su 11:45-13:45",0,,,,,wlan,,,,,,37849491800014,"+33 238622462",https://www.creperiebretonneorleans.com/,,,45234,Orléans,"Centre-Val de Loire",24,Loiret,45,Orléans,45234,47.900086299961,1.9080137
5,"La Petite Folie",,,"Tu-Sa 12:00-14:00,19:00-23:00",0,,,,,,,,,,,83970174500011,+33238533987,https://lapetitefolie-orleans.fr/,,,45234,Orléans,"Centre-Val de Loire",24,Loiret,45,Orléans,45234,47.900054599961,1.9085976
6,"Au Brazza",,,,,,,,,,,,,,,89290110900017,"+33 238688769",,,,45234,Orléans,"Centre-Val de Loire",24,Loiret,45,Orléans,45234,47.914159099958,1.9310622
7,L'Ardoise,,,"Tu-Th,Sa 12:00-13:30,19:30-21:30; Fr,Su 12:00-13:30",,,,,,,,,,,,79537510400010,"+33 238535166",,,,45234,Orléans,"Centre-Val de Loire",24,Loiret,45,Orléans,45234,47.90467339996,1.9054386
8,Pastel's,,,"Tu-Th 11:45-13:45,19:00-21:45; Fr 11:45-13:45,19:00-22:00; Sa 12:00-14:30,19:00-22:00",,,,,,,,,,,,88437730000014,"+33 954252575",https://www.pastels-restaurant.com/,,,45234,Orléans,"Centre-Val de Loire",24,Loiret,45,Orléans,45234,47.900249099961,1.9112915
9,"La Terrasse du Parc",,,,,,,,,,,,,,,,,http://www.laterrasse45.com,,,45234,Orléans,"Centre-Val de Loire",24,Loiret,45,Orléans,45234,47.847591699974,1.9380651
10,"Chez Eugène",,,Mo-Fr,1,,,,,,,,,,,40520209400018,,,,,45234,Orléans,"Centre-Val de Loire",24,Loiret,45,Orléans,45234,47.903837599961,1.9055246
11,"Restaurant Universitaire - L'Anatidé",,,"Mo-Fr 11:30-13:30",,,,,,,,250,,,,18450021300477,,https://www.crous-orleans-tours.fr/restaurant/lanatide/,,,45234,Orléans,"Centre-Val de Loire",24,Loiret,45,Orléans,45234,47.844586499974,1.9357554
12,"O Chicken Naan",,,,1,,,,,,,,,,,,+33236172134,,,,45234,Orléans,"Centre-Val de Loire",24,Loiret,45,Orléans,45234,47.839223799976,1.935991
13,L'Amandier,,,,0,,,,,,,,,,,,,,,,45234,Orléans,"Centre-Val de Loire",24,Loiret,45,Orléans,45234,47.914912999958,1.8994738
14,Siam's,,,"Mo-Sa 12:00-14:00,19:00-22:30",,,,,,,,,,,,35069148100021,"+33 2 38 77 99 24",https://www.restaurant-siams.fr/le-restaurant/,,,45234,Orléans,"Centre-Val de Loire",24,Loiret,45,Orléans,45234,47.899671899961,1.9064994
15,"Grec gourmand",,,"Tu-Th 11:00-01:00, Fr 11:00-02:00, Sa 12:00-02:00, Su 12:00-01:00",0,,,,1,,,14,1,,,,,,,0,45234,Orléans,"Centre-Val de Loire",24,Loiret,45,Orléans,45234,47.900102899961,1.908208
16,Polpettone,,,"Mo-Th 12:00-14:30,19:00-22:30; Fr 12:00-14:30,19:00-23:00; Sa 12:00-15:00,19:00-23:00",,,,,,,,,,,,82843853100018,"+33 2 36 17 04 34",https://www.polpettone-restaurant.com/,,,45234,Orléans,"Centre-Val de Loire",24,Loiret,45,Orléans,45234,47.898168199962,1.9070774
17,"Before Lounge",,,,,,,,,,,,,,,,+33642999182,,,,45234,Orléans,"Centre-Val de Loire",24,Loiret,45,Orléans,45234,47.877927299967,1.9095004
18,Trib's,,,"Mo-Th 05:30-20:30; Fr 05:30-21:00; Sa 06:30-19:30; PH,Su 08:15-21:00",1,,,,,,,,,,,,,,,,45234,Orléans,"Centre-Val de Loire",24,Loiret,45,Orléans,45234,47.90781579996,1.904207
19,"La Sole Dorée",,,"We-Sa 12:00-14:00,19:30-22:00; Su 12:00-14:00",,,,,,,,,,,,84854686700013,"+33 238832140",https://www.lasoledoree.fr/,,,45234,Orléans,"Centre-Val de Loire",24,Loiret,45,Orléans,45234,47.898396499962,1.8978947
20,"Menphis Cofee",,,"Mo-Th 11:45-22:30; Fr,Sa 11:45-23:00; Su 11:45-22:30",,,,,,,,,,,,52264344400014,+33238777015,,,,45234,Orléans,"Centre-Val de Loire",24,Loiret,45,Orléans,45234,47.900976799961,1.9062535
21,"Au Coin Gourmand",,,"Mo-We 08:00-21:00; Th-Fr 08:00-22:00,Sa 09:00-22:00",,,,,,,,,,,,83428029900019,"+33 9 82 46 40 49",,,,45234,Orléans,"Centre-Val de Loire",24,Loiret,45,Orléans,45234,47.899108599962,1.9031726
22,"Le Saint Vincent",,,"Mo-Fr 07:00-19:30; Sa 06:30-13:30",,,,,,,,,,,,88462906400020,+33238627778,,,,45234,Orléans,"Centre-Val de Loire",24,Loiret,45,Orléans,45234,47.90437679996,1.9129917
23,"Les Quatres Mains",,,,,,,,,,,,,,,49297224500012,"+33 2 38 88 64 20",https://www.lesquatremains.com/,,,45234,Orléans,"Centre-Val de Loire",24,Loiret,45,Orléans,45234,47.900074899961,1.8818186
24,"Tex Mex",,,"Mo-Th 12:00-15:00,18:00-23:00, Fr 12:00-15:00,18:00-24:00, Sa 12:00-15:30,18:00-23:00",,,,,,,,,,,,87916359000018,"+33 2 38 53 19 80",https://www.texmex-orleans.fr/,,,45234,Orléans,"Centre-Val de Loire",24,Loiret,45,Orléans,45234,47.90423649996,1.902754
25,Andalucia,,,,,,,,,,,,,,,48506821700036,,,,,45234,Orléans,"Centre-Val de Loire",24,Loiret,45,Orléans,45234,47.838676199976,1.9302453
26,"Le 147' café",,,,,,,,,,,,,,,91378419500012,,,,,45234,Orléans,"Centre-Val de Loire",24,Loiret,45,Orléans,45234,47.911062499959,1.9153427
27,"Salon de thé - B Glacier",,,,,,,,,,,,,,,33044262500019,,,,,45234,Orléans,"Centre-Val de Loire",24,Loiret,45,Orléans,45234,47.901047699961,1.9043539
28,"Croc Express",,,"Mo-Su 11:30-01:00",0,,,,,,,,,,,52197899900022,,,,,45234,Orléans,"Centre-Val de Loire",24,Loiret,45,Orléans,45234,47.899954799961,1.9076024
29,L'Inexplosible,,,"Th-Sa 18:00-02:00",1,,,,,,,,,,,85017441800010,"+33 6 07 68 57 73",,,,45234,Orléans,"Centre-Val de Loire",24,Loiret,45,Orléans,45234,47.897483799962,1.9088148
30,"Victoria Pub",,,"Mo-Su 17:00-02:00",1,,,,,,,,,,,80482465400011,"+33 6 67 95 00 65",,,,45234,Orléans,"Centre-Val de Loire",24,Loiret,45,Orléans,45234,47.900717099961,1.9076406
31,"Planet Pizza",,,"Mo,Tu 11:30-14:00, Mo-Th 18:00-23:00, We,Th 11:30-14:00,18:00-24:00, Fr,Sa 18:00-24:00, Su 11:30-14:00,18:00-23:00",0,,,,,,,,,,,80313099600017,,,,,45234,Orléans,"Centre-Val de Loire",24,Loiret,45,Orléans,45234,47.900272699961,1.9102949
32,"Pino Gelato",,,,,,,,,,,,,,,88441579500019,,,,,45234,Orléans,"Centre-Val de Loire",24,Loiret,45,Orléans,45234,47.898592999962,1.9094516
33,"Oh Terroir version Fast Good",,,"Mo-Su 11:30-14:30,18:30-22:00",,,,,,,,,,,,,"+33 2 38 75 80 11",https://ohterroir-orleans.fr,,,45234,Orléans,"Centre-Val de Loire",24,Loiret,45,Orléans,45234,47.898426899962,1.9082305
34,"Le Boloye",,,"Mo-Su 12:00-01:00",,,,,,,,,,,,38404634800023,"+33 2 38 21 72 90",,,,45234,Orléans,"Centre-Val de Loire",24,Loiret,45,Orléans,45234,47.898285099962,1.9079104
35,"Hôtel de Paris",,,,,,,,,,,,,,,50527259100023,"+33 2 38 83 95 86",,,,45234,Orléans,"Centre-Val de Loire",24,Loiret,45,Orléans,45234,47.908838299959,1.90078
36,Mosaïque,,,"Mo 12:00-13:30,19:30-21:30; Tu-Sa 12:00-14:00,19:30-22:00; Su 12:00-14:00",0,,,,,,,,,,,50218492200024,"+33 238721110",https://www.restaurantmosaique.fr/,,,45234,Orléans,"Centre-Val de Loire",24,Loiret,45,Orléans,45234,47.908863899959,1.8837639
37,"Café du Théatre",,,"Tu-Fr 12:00-14:00,19:00-22:00; Sa 19:00-22:00",,,,,,,,,,,,,"+33 7 88 50 58 10",,,,45234,Orléans,"Centre-Val de Loire",24,Loiret,45,Orléans,45234,47.903675899961,1.9151535
38,"La Java Pop",,,"Tu-Su 17:00-01:00",,,,,,,,,,,,52297808900012,+33675453542,http://www.javapop.fr/,,,45234,Orléans,"Centre-Val de Loire",24,Loiret,45,Orléans,45234,47.899078899962,1.9094706
39,"Indien Agra",,,,,,,,,,,,,,,,,,,,45234,Orléans,"Centre-Val de Loire",24,Loiret,45,Orléans,45234,47.898521899962,1.9094562
40,"Best of",,,"Mo-Su 11:30-01:00",0,,,,,,,,,,,50316581300018,"+339 61 64 36 25",,,,45234,Orléans,"Centre-Val de Loire",24,Loiret,45,Orléans,45234,47.899959599961,1.9066531
41,"Le Petit Bouchon de la Lionne",,,,,,,,,,,,,,,,,,,,45234,Orléans,"Centre-Val de Loire",24,Loiret,45,Orléans,45234,47.90417719996,1.9011083
42,Soofresh,,,"Tu-Fr 12:00-14:30; Mo 12:00-14:00",,,,,,,,,,,,95284438900025,,,,,45234,Orléans,"Centre-Val de Loire",24,Loiret,45,Orléans,45234,47.900954799961,1.9031603
43,"Le Orlean's",,,"Tu-Sa 16:00-02:00",0,,,,,,,,,,,85302609400013,"+33 238831650",https://le-orleans-bar.eatbu.com/?lang=fr,,,45234,Orléans,"Centre-Val de Loire",24,Loiret,45,Orléans,45234,47.899940699961,1.9074039
44,"Kantinn Grill",,,"Mo-Su 11:00-23:00",,,,,,,,,,,,75083314700028,"+332 38 84 44 04",,https://www.facebook.com/orleanskantinn,,45234,Orléans,"Centre-Val de Loire",24,Loiret,45,Orléans,45234,47.908439399959,1.9038095
45,Kimme,,,"Mo-Th 19:00-21:30; Fr 12:00-13:45,19:00-22:00; Sa 11:45-14:00,19:00-22:00",,,,,,,,,,,,83222504900010,"+33 7 87 97 95 24",https://www.restaurant-coreen-orleans.fr/,,,45234,Orléans,"Centre-Val de Loire",24,Loiret,45,Orléans,45234,47.900346099961,1.9124937
46,"Le Bistrot",,,"Mo-Sa 09:00-23:00; Su 10:00-18:00",,,,,,,,80,,,,42423479700050,"+33 2 38 53 28 61",https://lebistrot-orleans.fr/,,,45234,Orléans,"Centre-Val de Loire",24,Loiret,45,Orléans,45234,47.902350299961,1.9030952
47,"La Provence",,,,,,,,,,,,,,,52843593600026,,,,,45234,Orléans,"Centre-Val de Loire",24,Loiret,45,Orléans,45234,47.902005199961,1.9032352
48,"La maison par l'étoile d'Or",,,"Tu-Th 12:00-14:00; Fr-Sa 12:00-14:00,19:30-22:00",,,,,,,,,,,,48323598200012,"+33 2 38 53 49 20",,,,45234,Orléans,"Centre-Val de Loire",24,Loiret,45,Orléans,45234,47.898858699962,1.9022166
49,Phood,,,"Mo-Sa 12:00-14:30,19:00-22:00; Su 19:00-22:00",,,,,,,,,,,,,+33238689515,https://www.phood.fr/,,,45234,Orléans,"Centre-Val de Loire",24,Loiret,45,Orléans,45234,47.899088699962,1.9069443
50,"Notre Cher & Tendre",,,,1,,,,,,,65,,,,84960934200019,"+332 38 54 36 36",https://www.restaurant-notre-cher-et-tendre.com/,,,45234,Orléans,"Centre-Val de Loire",24,Loiret,45,Orléans,45234,47.901198399961,1.9015487
51,"L'assiette gourmande",,,"Mo-Sa 12:00-14:30,19:30-22:30",0,,,,,,,,,,,84312276300017,"+33 2 38 77 46 41",https://lassiette-gourmande.eatbu.com,,,45234,Orléans,"Centre-Val de Loire",24,Loiret,45,Orléans,45234,47.90788669996,1.9037583
52,L'Atelier,,,"Tu-Sa 17:00-01:00",,,,,,,,,,,,81069456200010,,,,,45234,Orléans,"Centre-Val de Loire",24,Loiret,45,Orléans,45234,47.900110699961,1.9094063
53,"Los Gabachos",,,"Mo-Su 11:00-21:30",1,,,,,,,,,,,83167615000020,,,,,45234,Orléans,"Centre-Val de Loire",24,Loiret,45,Orléans,45234,47.901453499961,1.9064582
54,"Bio Tea Flor",,,"Tu-Sa 12:00-19:00",,,,,,,,,,,,88266322200017,"+33 238700811",https://www.bio-tea-flor.fr/,,,45234,Orléans,"Centre-Val de Loire",24,Loiret,45,Orléans,45234,47.900389299961,1.9055806
55,"L'Ant Hic",,,"Mo-Su 17:00-01:00",0,,,,,,,,,,,48493030000013,+33623530647,,,,45234,Orléans,"Centre-Val de Loire",24,Loiret,45,Orléans,45234,47.899937899961,1.9073431
56,L'Artistic,,,"Mo-Fr 09:30-23:00; Sa-Su 10:30-23:00",,,,,,,,,,,,98102999400010,+33236569040,https://lartistic.fr/,,,45234,Orléans,"Centre-Val de Loire",24,Loiret,45,Orléans,45234,47.90612779996,1.9054781
57,"Pizzeria Martino",,,"Mo 12:00-15:00; Tu-Sa 12:00-15:00,19:00-22:30",,,,,1,,,,,,,53746257400014,+33238532477,,,,45234,Orléans,"Centre-Val de Loire",24,Loiret,45,Orléans,45234,47.90651999996,1.9070524
58,"Bel Air",,,,0,,,,,,,,,,,,"+33 2 38 77 08 06",,,,45234,Orléans,"Centre-Val de Loire",24,Loiret,45,Orléans,45234,47.899520699962,1.9069553
59,Rajisthan,,,"Tu-Th 11:30-14:15,18:30-22:30; Fr-Su 11:30-14:30,18:30-23:30",,,,,,,,,,,,79490499500014,"+33 2 38 54 95 45",http://lerajisthan.com/,,,45234,Orléans,"Centre-Val de Loire",24,Loiret,45,Orléans,45234,47.900260699961,1.9116547
60,"Burger du Boucher",,,"Tu-Sa 11:45-14:00,18:45-22:30",,,,,1,,,,,,,82383893300013,+33238637146,https://lesburgersduboucher.fr/,,,45234,Orléans,"Centre-Val de Loire",24,Loiret,45,Orléans,45234,47.894526999963,1.9067293
61,"Mister Tacos",,,,,,,,,,,,,,,,,,,,45234,Orléans,"Centre-Val de Loire",24,Loiret,45,Orléans,45234,47.903061799961,1.8984015
62,"Chez Ming",,,,,,,,,,,,,,,38759417900013,"+33 2 38 54 37 84",,,,45234,Orléans,"Centre-Val de Loire",24,Loiret,45,Orléans,45234,47.900366499961,1.9116127
63,L'Antidote,,,"Mo-Su 18:00-01:00",0,,,,,,,,,,,,"+33 2 36 11 19 72",,,,45234,Orléans,"Centre-Val de Loire",24,Loiret,45,Orléans,45234,47.899574899962,1.9078138
64,"Le Club 15",,,"Mo,We-Sa 20:00-01:00, Tu 19:30-01:00",1,,,,,,,,,,,78983585700010,"+33 677674891",,,,45234,Orléans,"Centre-Val de Loire",24,Loiret,45,Orléans,45234,47.90441819996,1.906254
65,Saint-Blaise,,,"Mo-Sa 12:00-14:30",,,,,,,,,,,,,+33238536945,,,,45234,Orléans,"Centre-Val de Loire",24,Loiret,45,Orléans,45234,47.901160999961,1.8924308
66,CroustiPizz',,,,,,,,,,,,0,,,81891378200012,+33234505671,,,,45234,Orléans,"Centre-Val de Loire",24,Loiret,45,Orléans,45234,47.90591399996,1.9142051
67,"Au Don Camillo",,,"Su-Th 12:00-15:00,19:00-23:00; Fr-Sa 12:00-15:00,19:00-01:00",1,,,,,,,130,,,,44191833100014,"+33 2 38 53 38 97",https://www.audoncamillo45.com,,,45234,Orléans,"Centre-Val de Loire",24,Loiret,45,Orléans,45234,47.902013299961,1.9052499
68,"Châlet du steak",,,"12:00-14:30,19:00-23:00",,,,,,,,,,,,,+33238662562,,,,45234,Orléans,"Centre-Val de Loire",24,Loiret,45,Orléans,45234,47.872519599968,1.9121184
69,"Les Parasols du Parc",,,,,,,,,,,,0,,,,+33238493000,https://www.parcfloraldelasource.com/se-restaurer/parasols-parc-petite-restauration/,,,45234,Orléans,"Centre-Val de Loire",24,Loiret,45,Orléans,45234,47.848208499974,1.9416787
70,Gric,,,"We-Sa 12:00-14:00,19:30-21:30; Su 12:00-14:00",,,,,,,,,,,,95123432700017,"+33 238531645",https://www.restaurantgric.fr/,,,45234,Orléans,"Centre-Val de Loire",24,Loiret,45,Orléans,45234,47.898572599962,1.9073757
71,"Afyon Kebab",,,,,,,,,,,,,,,51031403200010,,,,,45234,Orléans,"Centre-Val de Loire",24,Loiret,45,Orléans,45234,47.901834299961,1.8995949
72,O’Gourmet,,,,,,,,,,,,,,,75370286900029,,,,,45234,Orléans,"Centre-Val de Loire",24,Loiret,45,Orléans,45234,47.90581939996,1.8913297
73,"Bungalow Republik",,,"Mo-Sa 09:00-20:00; Su 10:00-20:00",,,,,,,,,,,,90812122100018,"+33 2 38 71 00 59",,,,45234,Orléans,"Centre-Val de Loire",24,Loiret,45,Orléans,45234,47.901354599961,1.9057806
74,Mojito's,,,"Tu-Sa 16:30-01:00",,,,,,,,,,,,82984254100015,,,,,45234,Orléans,"Centre-Val de Loire",24,Loiret,45,Orléans,45234,47.900037499961,1.9083272
75,"Empreinte Hotel - Bar Lounge",,,"Mo-Su 15:30-00:00",,,,,,,,,,,,,,https://empreinte-hotel.com/fr/espace-lounge.html,,,45234,Orléans,"Centre-Val de Loire",24,Loiret,45,Orléans,45234,47.898115599962,1.9058342
76,"Les Pissenlits par la racine",,,"Tu-Sa 12:00-14:00,19:00-23:00",0,,,,,,,,,,,45323793500029,+33238531860,https://lespissenlits-orleans.fr/,,,45234,Orléans,"Centre-Val de Loire",24,Loiret,45,Orléans,45234,47.900045399961,1.9084184
77,"Tacos et pizza express",,,,0,,,,,,,,,,,,,,,,45234,Orléans,"Centre-Val de Loire",24,Loiret,45,Orléans,45234,47.90731709996,1.8880602
78,"Chicken Hut",,,,,,,,,,,,,,,,,,,,45234,Orléans,"Centre-Val de Loire",24,Loiret,45,Orléans,45234,47.909505999959,1.9076668
79,"Le Bateau Lavoir",,,"Tu-Sa 12:00-13:30,19:00-21:30; Su 12:00-13:30",1,,,,,,,50,,,,88262192300011,+33238889323,http://www.bateaulavoir-orleans.fr,,,45234,Orléans,"Centre-Val de Loire",24,Loiret,45,Orléans,45234,47.897500099962,1.9094787
80,"L'atelier du Burger",,,,,,,,,,,,,,,84462257100017,"+33 238841291",https://latelierduburgerorleans.fr/,,,45234,Orléans,"Centre-Val de Loire",24,Loiret,45,Orléans,45234,47.899771499961,1.8809981
81,"Le Charbon",,,"We,Su,Mo 17:00-01:00, Tu,Th-Sa 17:00-02:00",,,,,,,,,,,,93018270400013,"+33 9 72 98 00 32",,,,45234,Orléans,"Centre-Val de Loire",24,Loiret,45,Orléans,45234,47.899556299962,1.9072573
82,O'Bellagio,,,,1,,,,1,,,,,,,81969162700015,,https://obellagio.fr/,,,45234,Orléans,"Centre-Val de Loire",24,Loiret,45,Orléans,45234,47.903636599961,1.8955114
83,"Les Becs à Vin",,,"Mo-Sa 12:00-14:00,18:00-01:00",,,,,,,,,,,,49985417200032,"+33 965166409",,,,45234,Orléans,"Centre-Val de Loire",24,Loiret,45,Orléans,45234,47.898926499962,1.9064219
84,"Food factory orléans",,,"Mo-Sa 11:30-15:00, 18:30-23:00; Su 11:30-14:45, 18:30-23:00",,,,,,,,,,,,,,https://food-factory-restaurant-orleans.eatbu.com/,,,45234,Orléans,"Centre-Val de Loire",24,Loiret,45,Orléans,45234,47.877685599967,1.9101883
85,"Au Disque Bleu",,,,,,,,,,,,,,,91037368700011,,,,,45234,Orléans,"Centre-Val de Loire",24,Loiret,45,Orléans,45234,47.901356199961,1.9215866
86,Nachos,,,"Mo-Fr 12:00-14:00,18:30-21:30; Sa,Su 12:00-21:30",,,,,,,,,,,,85183046300010,,https://nachos.fr,,,45234,Orléans,"Centre-Val de Loire",24,Loiret,45,Orléans,45234,47.898267899962,1.9070394
87,Gavezzoti,,,"Tu 19:00-22:00; We-Sa 12:00-14:30,19:00-22:00",0,,,,,,,,,,,85354360100019,"+33 2 38 54 08 32",,,,45234,Orléans,"Centre-Val de Loire",24,Loiret,45,Orléans,45234,47.900091799961,1.9092406
88,Starbucks,,Starbucks,,,,,,1,,,,,,Q37158,,,,,,45234,Orléans,"Centre-Val de Loire",24,Loiret,45,Orléans,45234,47.898584899962,1.90866
89,"Le Lièvre Gourmand",,,"We 18:00-20:00; Th-Su 09:30-12:00,18:30-20:00",1,,,,,,1,31,,,,80187418100010,"+33 238536614",http://www.lelievregourmand.com,,,45234,Orléans,"Centre-Val de Loire",24,Loiret,45,Orléans,45234,47.898077899962,1.9103597
90,Havanne,,,"Tu-Fr 07:00-19:30; Su 08:00-13:30; Sa 07:30-19:30",,,,,,,,,,,,,,,,,45234,Orléans,"Centre-Val de Loire",24,Loiret,45,Orléans,45234,47.894647599963,1.9031566
91,"Burger Station",,,,,,,,,,,,,,,,,,,,45234,Orléans,"Centre-Val de Loire",24,Loiret,45,Orléans,45234,47.910450599959,1.9118843
92,"Escale Oceania",,,,,,,,,,,,,,,33487178700019,"+33 238544765",https://www.oceaniahotels.com/escale-oceania-orleans/,,,45234,Orléans,"Centre-Val de Loire",24,Loiret,45,Orléans,45234,47.898228799962,1.8925944
93,O'Tacos,,O'Tacos,"Mo-Su 11:00-24:00",,,,,1,,,,,,Q28494040,89309113200025,,,,,45234,Orléans,"Centre-Val de Loire",24,Loiret,45,Orléans,45234,47.901797999961,1.9054321
94,"Only tacos",,,"Mo-Su 11:00-02:00",,,,,,,,,,,,88844815600016,"+33 987750757",https://only-tacos-orleans.eatbu.com/,,,45234,Orléans,"Centre-Val de Loire",24,Loiret,45,Orléans,45234,47.900411199961,1.9121885
95,"La Maison Blanche",,,"Th-Sa 18:00-03:00",,,,,,,,,,,,,,,,,45234,Orléans,"Centre-Val de Loire",24,Loiret,45,Orléans,45234,47.899520299962,1.9068552
96,Crust,,,"Mo-Su 00:00-23:00",,,,,,,,,,,,85305769300014,,,,,45234,Orléans,"Centre-Val de Loire",24,Loiret,45,Orléans,45234,47.916126199958,1.9279774
97,Kali,,,"Mo-Sa 12:00-14:00,19:00-22:00",1,,1,,1,,,,1,,,92909692300016,+33234502943,https://kali-restaurant-orleans.eatbu.com,,,45234,Orléans,"Centre-Val de Loire",24,Loiret,45,Orléans,45234,47.899953499961,1.9034543
98,"Le Jardin du Pavillon",,,,0,,,,,,,,,,,,,https://www.lejardindupavillon.fr/,,,45234,Orléans,"Centre-Val de Loire",24,Loiret,45,Orléans,45234,47.900893599961,1.9026292
99,"Le Brazza",,,"Mo-Fr 07:30-19:00; Sa 08:00-19:00; Su 08:00-13:00",0,,,,,,,,,,,89917380100015,"+33 2 38 73 68 32",,,,45234,Orléans,"Centre-Val de Loire",24,Loiret,45,Orléans,45234,47.90626359996,1.9018631
100,Mix,,,,,,,,,,,,,,,88359670200018,,,,,45234,Orléans,"Centre-Val de Loire",24,Loiret,45,Orléans,45234,47.901637899961,1.8996845
101,"Chez Bambino",,,"Tu-Th 12:00-14:00,18:00-23:00, Fr,Sa 12:00-14:00,18:00-24:00, Su 17:00-23:00",,,,,,,,,,,,88053021700012,"+33 238540353",,,,45234,Orléans,"Centre-Val de Loire",24,Loiret,45,Orléans,45234,47.909663799959,1.9008895
102,L'Entracte,,,,,,,,,,,45,,,,,,,,,45234,Orléans,"Centre-Val de Loire",24,Loiret,45,Orléans,45234,47.898326899962,1.8960237
103,"O five",,,"Mo-Sa 10:00-01:00, Su 12:00-01:00",,,,,,,,,,,,,,,,,45234,Orléans,"Centre-Val de Loire",24,Loiret,45,Orléans,45234,47.901446199961,1.9011242
104,"Le Brin de Zinc",,,"Mo-Su 10:00-15:00,18:00-00:00",1,,,,,,,180,,,,,"+33 238533877",https://lebrindezinc.fr/,,,45234,Orléans,"Centre-Val de Loire",24,Loiret,45,Orléans,45234,47.902108699961,1.9051406
105,"Bar le Dunois",,,,,,,,,,,,,,,,,,,,45234,Orléans,"Centre-Val de Loire",24,Loiret,45,Orléans,45234,47.90777089996,1.8932727
106,Ma-Dam,,,"Mo,Tu,Th 11:00-15:00,17:00-20:00; Fr,Sa 11:30-15:00,17:00-21:00",,,,,,,,,,,,87992136900028,"+33 238735311",https://www.ma-dam.fr/,,,45234,Orléans,"Centre-Val de Loire",24,Loiret,45,Orléans,45234,47.901236299961,1.9034268
107,"Le Diplomate",,,,1,,,,,,,,,,,98133525000016,,,,,45234,Orléans,"Centre-Val de Loire",24,Loiret,45,Orléans,45234,47.90609289996,1.8906777
108,"Rabiro chiken",,,"Mo-Th 11:00-14:00,23:00-03:00, Fr,Su 23:00-03:00",0,,,,,,,,,,,88814396300013,"+33 238542517",,,,45234,Orléans,"Centre-Val de Loire",24,Loiret,45,Orléans,45234,47.900440999961,1.9137968
109,Esco,,,,0,,,,,,,,,,,92061452600019,,,,,45234,Orléans,"Centre-Val de Loire",24,Loiret,45,Orléans,45234,47.900109399961,1.9095196
110,"Allo Pizza",,,,1,,,1,,,,,,,,,"+33 665400912",https://allo-pizza-orleans.fr/,,,45234,Orléans,"Centre-Val de Loire",24,Loiret,45,Orléans,45234,47.921957899956,1.8916435
111,"Le Score",,,,,,,,,,,,,,,,,,,,45234,Orléans,"Centre-Val de Loire",24,Loiret,45,Orléans,45234,47.903220899961,1.8958224
112,"Le Tonnelier",,,"Tu 12:00-13:45,19:30-21:45; We 12:00-14:00; Th 12:00-13:45,19:30-21:00; Fr 12:00-13:45,19:30-21:45; Sa 12:00-13:45,19:30-21:00",0,,,,,,,36,,,,49992210200011,"+33 238628914",https://www.restaurant-le-tonnelier.com/,,,45234,Orléans,"Centre-Val de Loire",24,Loiret,45,Orléans,45234,47.90436149996,1.9098505
113,L'Escalier,,,"Tu-Sa 11:00-15:00, 18:30-01:00",,,,,,,,,,,,84222957700023,+33967579076,https://www.restaurant-lescalier-orleans.fr/,,,45234,Orléans,"Centre-Val de Loire",24,Loiret,45,Orléans,45234,47.900010899961,1.9073249
114,"El Tacos",,,,,,,,,,,,,,,82986318200012,,,,,45234,Orléans,"Centre-Val de Loire",24,Loiret,45,Orléans,45234,47.910954799959,1.9084886
115,"Garden Ice Café",,,"Mo-Su 12:00-01:00",1,,,,,wlan,,,,,,50085600000038,,https://gardenicecafe.com/,,,45234,Orléans,"Centre-Val de Loire",24,Loiret,45,Orléans,45234,47.898079799962,1.908555
116,"Le Pari's",,,,1,,,,,,,,,,,,"+33 238532934",,,,45234,Orléans,"Centre-Val de Loire",24,Loiret,45,Orléans,45234,47.910547299959,1.9040149
117,"La Boîte à Pizza",,"La Boîte à Pizza","Mo-Su 11:00-14:00,18:00-23:00",,,,1,1,,,,,,Q3206840,84990709200019,,http://www.laboiteapizza.fr,,,45234,Orléans,"Centre-Val de Loire",24,Loiret,45,Orléans,45234,47.914669199958,1.899311
118,"Ban Thai",,,,0,,,,,,,,,,,,+33238687205,,,,45234,Orléans,"Centre-Val de Loire",24,Loiret,45,Orléans,45234,47.90606919996,1.9057466
119,"Royal Food",,,"Mo-Sa 11:00-23:00; Su 12:00-23:00",,,,,,,,,,,,79150233900017,,,,,45234,Orléans,"Centre-Val de Loire",24,Loiret,45,Orléans,45234,47.901562199961,1.9014313
120,"Asian Street",,,,,,,,,,,,,,,,"+33 238705417",,,,45234,Orléans,"Centre-Val de Loire",24,Loiret,45,Orléans,45234,47.902588999961,1.9024536
121,"Latino Café",,,,,,,,,,,,,,,45040995800011,,,,,45234,Orléans,"Centre-Val de Loire",24,Loiret,45,Orléans,45234,47.902570799961,1.8968266
122,Osare,,,"Mo-We 12:00-15:00; Th,Fr 12:00-15:00,19:00-23:00",1,,,,,,,,,,,87757359200012,"+33 673507240",https://www.osare-etc.fr/,,,45234,Orléans,"Centre-Val de Loire",24,Loiret,45,Orléans,45234,47.903570599961,1.9080305
123,Djaam,,,,,,,,,,,,,,,,"+33 238681071",,,,45234,Orléans,"Centre-Val de Loire",24,Loiret,45,Orléans,45234,47.901218799961,1.9031592
124,"Aux Fines Gueules",,,"Mo-Tu 08:30-19:00; Th-Fr 08:30-22:00; Sa 09:00-19:00",0,,,,,,,,,,,,"+332 38 62 46 91",,,,45234,Orléans,"Centre-Val de Loire",24,Loiret,45,Orléans,45234,47.903652899961,1.903619
125,Moog,,,"Mo-Su 17:00-03:00",1,,,,,,,,,,,53143086600016,,,,,45234,Orléans,"Centre-Val de Loire",24,Loiret,45,Orléans,45234,47.899831099961,1.9077667
126,Madeleine,,,"Mo-Th 11:30-14:30,18:30-22:30; Fr 11:30-14:30,18:30-23:00; Sa,Su 11:30-23:00",,,,,,,,,,,,,"+33 238513131",https://brasseriemadeleine-orleans.fr/,,,45234,Orléans,"Centre-Val de Loire",24,Loiret,45,Orléans,45234,47.873773899968,1.9123764
127,Bosphorus,,,,,,,,,,,,,,,,,,,,45234,Orléans,"Centre-Val de Loire",24,Loiret,45,Orléans,45234,47.839195499976,1.9351176
128,"C' Dubs",,,,,,,1,1,,,,,,,,,,,,45234,Orléans,"Centre-Val de Loire",24,Loiret,45,Orléans,45234,47.842278709245,1.9246036735242
129,"Ikizlere Ali Baba",,,"Mo-Sa 11:30-22:00",,,,,1,,,,0,,,48745345800019,"+33 2 38 53 85 49",,,,45234,Orléans,"Centre-Val de Loire",24,Loiret,45,Orléans,45234,47.909788199959,1.9008241
130,"Mon thé cristaux",,,"Mo-Sa 14:00-02:00, Su 16:00-02:00",0,,,,,,,,,,,81856638200011,,,,,45234,Orléans,"Centre-Val de Loire",24,Loiret,45,Orléans,45234,47.900261499961,1.9114432
131,"Le Patio",,,,,,,,,,,,,,,50485382100016,,,,,45234,Orléans,"Centre-Val de Loire",24,Loiret,45,Orléans,45234,47.899433899962,1.8785061
132,"Club 211",,,"Mo-Su 14:00-01:00",1,,,,,,,,,,,53915947500018,,,,,45234,Orléans,"Centre-Val de Loire",24,Loiret,45,Orléans,45234,47.900090399961,1.9091197
133,"Hôtel de l'Abeille",,,"Mo-Su 10:30-19:00",0,,,,,,3,,,,,,"+33 238535487",https://hotel-abeille.com/,,,45234,Orléans,"Centre-Val de Loire",24,Loiret,45,Orléans,45234,47.90566389996,1.9051471
134,"Bio Burger",,,"Mo-Su 11:00-23:00",0,,,,,,,,,,,92748988000025,"+332 59 16 02 04",https://www.bioburger.fr/restaurant-bio/orleans-chatelet/,,,45234,Orléans,"Centre-Val de Loire",24,Loiret,45,Orléans,45234,47.900503099961,1.9062301
135,"Chez Fa",,,"Tu 12:00-14:00,We 19:30-22:00,Th-Sa 12:00-14:00; Su 18:15-22:00",,,,,,,,,,,,83299684700014,"+33 6 28 53 70 28",https://www.chez-fa.fr/,,,45234,Orléans,"Centre-Val de Loire",24,Loiret,45,Orléans,45234,47.900449099961,1.9126633
136,Bogota,,,"Mo-Sa 17:00-01:00",1,,,,,,,,,,,,"+33 6 70 04 58 72",,,,45234,Orléans,"Centre-Val de Loire",24,Loiret,45,Orléans,45234,47.899508499962,1.9067662
137,V&B,,,"Mo 15:00-21:00; Tu,We 10:00-14:00,15:00-21:00; Th 10:00-14:00,15:00-21:30; Fr 10:00-21:30; Sa 10:00-21:00",,,,,,,,,,,,,"+33 2 38 54 17 39",,,,45234,Orléans,"Centre-Val de Loire",24,Loiret,45,Orléans,45234,47.898408799962,1.9062222
138,"J'M Bar",,,"Tu-Su 17:00-01:00",1,,,,,,,,,,,92856012700013,"+332 38 83 24 83",https://jmbarorleans.wixsite.com/website,,,45234,Orléans,"Centre-Val de Loire",24,Loiret,45,Orléans,45234,47.900007899961,1.9082521
139,Diners'pizz,,,"Tu-Sa 18:00-23:00",,,,,,,,,,,,,+33238149713,,,,45234,Orléans,"Centre-Val de Loire",24,Loiret,45,Orléans,45234,47.886728399965,1.9051434
140,"Comptoir Studio 16",,,"Mo-Th 09:00-14:30,18:00-22:30; Fr 09:00-22:30",,,,,1,,,,,,,90021089900010,"+332 38 42 73 93",https://comptoirorleans.com/,,,45234,Orléans,"Centre-Val de Loire",24,Loiret,45,Orléans,45234,47.90436079996,1.9029851
141,"Chicken Spot",,,,,,,,,,,,0,,,,,,,,45234,Orléans,"Centre-Val de Loire",24,Loiret,45,Orléans,45234,47.831992199977,1.9286945
142,"Volpone Ristorante",,,"Mo-Sa 12:00-14:30,19:00-23:30; Su 12:00-15:00,19:00-23:30",,,,,,,,,,,,91498839900020,"+33 2 38 53 51 83",,,,45234,Orléans,"Centre-Val de Loire",24,Loiret,45,Orléans,45234,47.899544899962,1.9065307
143,"Le Lutétia",,,"Mo-Sa 08:00-20:00,Su 08:30-19:30",1,,,,,,,,,,,81540731700016,"+332 38 53 39 63",,,,45234,Orléans,"Centre-Val de Loire",24,Loiret,45,Orléans,45234,47.901853799961,1.9085023
144,Subway,,Subway,"Mo-Su 09:30-21:30",1,,,,1,,,,,,Q244457,51323384100016,"+33 2 38 21 84 30",https://restaurants.subway.com/france/orleans/5-avenue-de-paris,,,45234,Orléans,"Centre-Val de Loire",24,Loiret,45,Orléans,45234,47.90770209996,1.9037334
145,McDonald's,,McDonald's,"Mo-Th 08:00-23:00; Fr-Sa 08:00-24:00; Su 08:00-23:00",1,,,0,1,wlan,,,,,Q38076,,"+33 2 38 81 05 98",,,,45234,Orléans,"Centre-Val de Loire",24,Loiret,45,Orléans,45234,47.90636889996,1.9042957
146,Yensabai,,,,,,,,,,,,,,,84366784100012,,https://www.speedrabbitpizza.com/,,,45234,Orléans,"Centre-Val de Loire",24,Loiret,45,Orléans,45234,47.894283199963,1.9011563
147,"Le Fournil de Coligny",,,,1,,,,,,,,,,,82873772600012,,,,,45234,Orléans,"Centre-Val de Loire",24,Loiret,45,Orléans,45234,47.916278299958,1.9006242
148,"Pizza Spot",,,,0,,,,,,,,,,,,+33603341750,,,,45234,Orléans,"Centre-Val de Loire",24,Loiret,45,Orléans,45234,47.900371699961,1.9128628
149,"Le Phare St Louis",,,"Tu 11:45-14:00; We-Fr 11:45-14:00,18:45-21:30; Sa 11:45-14:15,18:45-22:00; Su 11:45-14:00",0,,,,,,,,,,,,"+33 2 18 88 94 32",https://lepharestlouis.com/orleans/,,,45234,Orléans,"Centre-Val de Loire",24,Loiret,45,Orléans,45234,47.901239499961,1.905286
150,Bes-tea,,,"Mo-Sa 11:30-19:00; Su 12:00-19:00",,,,,,,,,,,,92098393900017,+33611187444,,,,45234,Orléans,"Centre-Val de Loire",24,Loiret,45,Orléans,45234,47.900223899961,1.9054497
151,"Le Bannier",,,"Mo-Fr 07:00-21:00; Sa 07:00-15:30",1,,,,,yes,2,,,,,48486213100014,"+33 238 53 25 86",,,0,45234,Orléans,"Centre-Val de Loire",24,Loiret,45,Orléans,45234,47.908380099959,1.9009428
152,"Funny Boy Kebab",,,"Mo-Su 11:30-15:00,17:00-01:00",,,,,,,,,,,,43046814000016,,,,,45234,Orléans,"Centre-Val de Loire",24,Loiret,45,Orléans,45234,47.900082599961,1.9079626
153,JŌŌSĒ,,,"Mo-Sa 10:00-19:00",,,,,,,,,,,,91003594800017,"+33 9 88 52 78 86",https://www.instagram.com/joose_club/,,,45234,Orléans,"Centre-Val de Loire",24,Loiret,45,Orléans,45234,47.900026699961,1.9052374
154,"Histoire de pains",,,,,,,,,,,,,,,,,,,,45234,Orléans,"Centre-Val de Loire",24,Loiret,45,Orléans,45234,47.901386399961,1.9023229
155,"Le Club Café",,,"Mo-Sa 08:30-19:00; Su 11:00-18:00",,,,,,,,,,,,88200666100012,,https://www.clubcafe.fr/,,,45234,Orléans,"Centre-Val de Loire",24,Loiret,45,Orléans,45234,47.899985399961,1.9064846
156,K&JI,,,"Tu-Fr 11:30-14:00,18:30-22:00; Sa 11:30-14:30,18:30-22:00",,,,,,,,,,,,91978986700018,"+33 660366957",https://kandji-food.fr/,,,45234,Orléans,"Centre-Val de Loire",24,Loiret,45,Orléans,45234,47.900381599961,1.9118051
157,Quick,,Quick,,1,,,0,1,,,,,,Q286494,47986409200024,,,,,45234,Orléans,"Centre-Val de Loire",24,Loiret,45,Orléans,45234,47.90699259996,1.9047974
158,"New China",,,"Mo-Sa 10:30-21:30",,,,,,,,,,,,40124901600031,,,,,45234,Orléans,"Centre-Val de Loire",24,Loiret,45,Orléans,45234,47.90515819996,1.9047877
159,"Restaurant Universitaire Le Lac",,,"Mo-Fr 11:30-13:30",,,,,,,,,,,,,"+33 2 38 63 13 85",,,,45234,Orléans,"Centre-Val de Loire",24,Loiret,45,Orléans,45234,47.843919699975,1.9327329
160,Sluurpit,,,,0,,,,,,,,,,,,"+33 9 61 69 12 74",https://sluurpit.com/,,,45234,Orléans,"Centre-Val de Loire",24,Loiret,45,Orléans,45234,47.899469799962,1.8788792
161,"Solo Palma Coffee House",,,"Tu-Sa 09:00-18:00",0,,,,,,,,,,,84156744900019,,https://solopalma.fr/,,,45234,Orléans,"Centre-Val de Loire",24,Loiret,45,Orléans,45234,47.899309499962,1.9067548
162,"Paul et Juliette",,,"Mo-Tu 12:00-13:30,19:00-22:30; Th-Sa 12:00-13:30,19:00-22:30",,,,,,,,,,,,85261622600035,"+33 2 38 53 12 21",https://www.paul-et-juliette.fr/,,,45234,Orléans,"Centre-Val de Loire",24,Loiret,45,Orléans,45234,47.899993899961,1.9081151
163,"Bonne Pioche",,,"Tu-Sa 17:00-01:00; Su 12:15, 17:00-00:00",0,,,,0,,,,,,,80945296400038,,https://www.cafebonnepioche.com/,,,45234,Orléans,"Centre-Val de Loire",24,Loiret,45,Orléans,45234,47.900265199961,1.9102187
164,"Le 66",,,,,,,,,,,,,,,83305906600013,"+33 673845145",,,,45234,Orléans,"Centre-Val de Loire",24,Loiret,45,Orléans,45234,47.900377299961,1.9117403
165,"Le Taj Mahal",,,"Mo,We-Sa 11:30-14:30, We-Sa 18:30-22:30, Tu 18:30-22:30",0,,,,,,,,,,,90168960400014,"+33 238536091",https://www.tajmahal-orleans.fr/,,,45234,Orléans,"Centre-Val de Loire",24,Loiret,45,Orléans,45234,47.900405699961,1.9121075
166,"Ô P'tit Mezzé",,,"Tu-Sa 11:30-14:00,18:30-22:00",0,,,,,,,,,,,"95331146100016;: 95331146100016","+332 38 53 43 48",https://optitmezze.fr/,,,45234,Orléans,"Centre-Val de Loire",24,Loiret,45,Orléans,45234,47.898306399962,1.9044157
167,"Troquet Royal",,,"Mo-Sa 08:30-19:00",1,,,,,,,,,,,83971501800017,"+33 983547568",,,,45234,Orléans,"Centre-Val de Loire",24,Loiret,45,Orléans,45234,47.894627399963,1.9037944
168,"Le p'tit Gavroche",,,"Tu-Sa 12:00-14:00,19:00-22:00",,,,,,,,,,,,,"+33 2 38 77 17 90",https://leptitgavroche.fr/,,,45234,Orléans,"Centre-Val de Loire",24,Loiret,45,Orléans,45234,47.900327999961,1.9122399
169,"La Datcha",,,"Tu-Sa 16:00-01:00",0,,,,,,,,,,,,"+33 6 61 84 40 70",,,,45234,Orléans,"Centre-Val de Loire",24,Loiret,45,Orléans,45234,47.900108399961,1.9093625
170,"Le petit Bar de Halles",,,,,,,,,,,,,,,92205362400016,,,,,45234,Orléans,"Centre-Val de Loire",24,Loiret,45,Orléans,45234,47.899467699962,1.9058562
171,"Le Diabolo Menthe",,,,,,,,,,,,,,,82868876200016,,,,,45234,Orléans,"Centre-Val de Loire",24,Loiret,45,Orléans,45234,47.909442599959,1.9076031
172,"Ooh my Cookie",,,"Tu-Fr 12:30-19:00; Sa 13:00-19:00",,,,,,,,,,,,92535462300017,,,,,45234,Orléans,"Centre-Val de Loire",24,Loiret,45,Orléans,45234,47.901956599961,1.9025993
173,L'Hibiscus,,,"Tu-Sa 12:00-13:15,20:00-21:15",0,,,,,,,,,,,81886856400027,,https://hibiscus-restaurant.com,,,45234,Orléans,"Centre-Val de Loire",24,Loiret,45,Orléans,45234,47.900237099961,1.9111616
174,"Au Bouillon",,,"Mo-Su 11:00-14:30,18:30-22:30",1,,,,1,,,120,,,,,"+33 238683595",https://aubouillon.restaurant/,,,45234,Orléans,"Centre-Val de Loire",24,Loiret,45,Orléans,45234,47.899003299962,1.9068444
175,"La Civette",,,,0,,,,,,,,,,,82168374500011,,,,,45234,Orléans,"Centre-Val de Loire",24,Loiret,45,Orléans,45234,47.900375899961,1.9130215
176,"Les Terrasses du Bord de Loire",,,"Mo 12:00-13:45,19:30-21:30; Tu 12:00-13:45; Th-Sa 12:00-13:45,19:30-21:30; Su 12:00-13:45",1,,,,,,,70,,,,,"+33 2 38 53 45 98",,,,45234,Orléans,"Centre-Val de Loire",24,Loiret,45,Orléans,45234,47.900742999961,1.931005
177,"Le Délice du Dragon d'Or",,,,,,,,,,,,,,,,"+33 2 38 53 26 59",,,,45234,Orléans,"Centre-Val de Loire",24,Loiret,45,Orléans,45234,47.901802399961,1.8940645
178,"Bistro Coligny",,,"Mo-Fr 09:00-19:00",,,,,,,,,,,,75338459300012,+33238533943,,,,45234,Orléans,"Centre-Val de Loire",24,Loiret,45,Orléans,45234,47.914767899958,1.8999233
179,L'Etage,,,"Tu-Sa 12:00-14:30,19:00-22:00",0,,,,,,,,,,,81047945100017,,,,,45234,Orléans,"Centre-Val de Loire",24,Loiret,45,Orléans,45234,47.898310499962,1.9049024
180,"La Station",,,,0,,,,,,,,,,,80286337300014,,,,,45234,Orléans,"Centre-Val de Loire",24,Loiret,45,Orléans,45234,47.901482499961,1.9030445
181,"Lordberry Coffeeshop",,,,,,,,,,,,,,,,,,,,45234,Orléans,"Centre-Val de Loire",24,Loiret,45,Orléans,45234,47.915693399958,1.9006097
182,"Le Vieux Comptoir",,,"Tu-Sa 17:00-02:00",,,,,,,,,,,,51497902000013,+33952178308,,,,45234,Orléans,"Centre-Val de Loire",24,Loiret,45,Orléans,45234,47.900307499961,1.9105097
183,"Quick & Cool",,,,,,,,,,,,,,,,,,,,45234,Orléans,"Centre-Val de Loire",24,Loiret,45,Orléans,45234,47.902962499961,1.895903
184,O'Comptoir,,,,,,,,,,,,,,,98404480000014,,,,,45234,Orléans,"Centre-Val de Loire",24,Loiret,45,Orléans,45234,47.901915099961,1.924052
185,"O délices des Cimes",,,"12:00-14:30,19:00-22:30",,,,,1,wlan,,,,,,83940447200038,"+33 2 38 53 30 24",https://odelicesdescimes.eatbu.com/?lang=fr,,,45234,Orléans,"Centre-Val de Loire",24,Loiret,45,Orléans,45234,47.899116499962,1.9088674
186,"Brasserie de l'Indien",,,,,,,,,,,,,,,89466346700021,,,,,45234,Orléans,"Centre-Val de Loire",24,Loiret,45,Orléans,45234,47.840213799975,1.9347403
187,"Fast Burger",,,"Mo-Th 11:00-14:00,18:00-24:00, Fr 11:00-13:00,18:00-01:00, Su 18:00-24:00",0,,,,,,,,,,,90251737400010,,,,,45234,Orléans,"Centre-Val de Loire",24,Loiret,45,Orléans,45234,47.899929099961,1.9072421
188,"Le Chafouin",,,"Mo 18:30-22:00",,,,,,,,,,,,,,https://le108.org,,,45234,Orléans,"Centre-Val de Loire",24,Loiret,45,Orléans,45234,47.900663799961,1.9136189
189,Canotto,,,"Mo-Th 12:00-14:00,19:00-22:00; Fr 12:00-14:00,19:00-22:30; Sa 12:00-14:30,19:00-22:30",,,,,,,,,,,,97985794300018,+33238542095,https://canotto.fr/,,,45234,Orléans,"Centre-Val de Loire",24,Loiret,45,Orléans,45234,47.900506699961,1.9060323
190,"La Concurrence",,,"Mo-We 12:00-15:00, Th-Sa 12:00-01:00, Su 11:30-21:00",,,,,,,,,,,,85160771300019,+33238437560,https://www.laconcurrence-cafe-bistrot.fr/,,,45234,Orléans,"Centre-Val de Loire",24,Loiret,45,Orléans,45234,47.898272199962,1.9094358
191,"Restaurant administratif",,,,,,,,,,,,,,,,,,,,45234,Orléans,"Centre-Val de Loire",24,Loiret,45,Orléans,45234,47.914804499958,1.8964116
192,"Le Dundee",,,"Mo-Sa 11:30-14:00",,,,,,,,70,,,,,,https://www.crous-orleans-tours.fr/restaurant/le-dundee-2/,,,45234,Orléans,"Centre-Val de Loire",24,Loiret,45,Orléans,45234,47.843775099975,1.9328695
193,L'Orangerie,,,"Mo-Fr 08:00-15:00; Sa 11:30-15:00",,,,,,,,,,,,79433824400021,"+33 238624389",,,,45234,Orléans,"Centre-Val de Loire",24,Loiret,45,Orléans,45234,47.901581699961,1.9078356
194,O'Chicken,,,,,,,,,,,,,,,,,,,,45234,Orléans,"Centre-Val de Loire",24,Loiret,45,Orléans,45234,47.900280099961,1.91177
195,"Chez Mian",,,"We-Sa 12:00-14:00,19:00-22:00; Tu 19:00-22:30; Mo 09:00-17:00; Su 19:00-22:30",0,,,,,,,,,,,84289986600011,,,,,45234,Orléans,"Centre-Val de Loire",24,Loiret,45,Orléans,45234,47.900263599961,1.9115209
196,O'Tacos,,O'Tacos,,0,,,,1,,,,,,Q28494040,,,,,,45234,Orléans,"Centre-Val de Loire",24,Loiret,45,Orléans,45234,47.90615479996,1.8899903
197,L'Essentiel,,,"Mo-Tu 12:00-14:00; We-Fr 12:00-14:00,19:30-21:30",,,,,,,,,,,,91430616200019,"+33 649737753",,,,45234,Orléans,"Centre-Val de Loire",24,Loiret,45,Orléans,45234,47.90402649996,1.9053202
198,"Pizzeria 4 Saisons",,,"Mo-Su 18:00-24:00",,,,,,,,,,,,48270696700015,"+33 238420394",,,,45234,Orléans,"Centre-Val de Loire",24,Loiret,45,Orléans,45234,47.900413899961,1.9135464
199,"Atelier bricolage - L'Arcanderie",,,,,,,,,,,,,,,92295199100012,,https://www.facebook.com/atelierbricolagecollaboratiforleans,,,45234,Orléans,"Centre-Val de Loire",24,Loiret,45,Orléans,45234,47.900555999961,1.9138035
200,"Columbus Café & Co",,"Columbus Café & Co","Mo-Fr 08:00-19:00; Sa 09:30-19:00",1,,,,1,,,,,,Q2984582,41382435000016,"+33 2 38 83 21 16",https://www.columbuscafe.com/boutique/orleans-place-du-martrois/,,,45234,Orléans,"Centre-Val de Loire",24,Loiret,45,Orléans,45234,47.902204199961,1.9031302
201,"Côté Sushi",,"Côté Sushi",,,,,,1,,,,,,Q130731390,,"+33 252565960",,,,45234,Orléans,"Centre-Val de Loire",24,Loiret,45,Orléans,45234,47.90521059996,1.9045264
202,"Cafétéria Le Bistrot de l'étudiant","CROUS Orléans-Tours",,"Mo-Fr 08:30-16:00",,,,,,,,124,,,,,,https://www.crous-orleans-tours.fr/restaurant/le-bistrot/,,,45234,Orléans,"Centre-Val de Loire",24,Loiret,45,Orléans,45234,47.843003199975,1.9357882
203,"L'orchidée Chiang Maï",,,,0,,,,,,,,,,,,,,,,45234,Orléans,"Centre-Val de Loire",24,Loiret,45,Orléans,45234,47.899754599961,1.9077829
204,"Tante Jeanne",,,"Tu-Sa 09:15-19:00",0,,,,,,,,,,,91421939900021,"+33 238540882",https://www.facebook.com/tantejeanne45/,,,45234,Orléans,"Centre-Val de Loire",24,Loiret,45,Orléans,45234,47.903769699961,1.9036472
205,"Le Dropkick Bar",,,"Mo 17:00-00:00; Tu-We 17:00-01:00; Th-Fr 16:00-01:00; Sa 14:00-01:00",,,,,,,,,,,,82093594800019,"+33 2 38 15 93 58",,,,45234,Orléans,"Centre-Val de Loire",24,Loiret,45,Orléans,45234,47.899324399962,1.9059735
206,O'Grilo,,,"Mo-Tu 11:30-14:00; We-Su 11:30-14:00,19:00-22:00",,,,,1,wlan,,,,,,80821678200025,+33980653002,https://ogrilo.fr/,,,45234,Orléans,"Centre-Val de Loire",24,Loiret,45,Orléans,45234,47.888079999964,1.8948448
207,"Salon De The Cocktails Narguité",,,,,,,,,,,,,,,,,,,,45234,Orléans,"Centre-Val de Loire",24,Loiret,45,Orléans,45234,47.877880699967,1.9096779
208,"Chez Dionysos",,,"Tu-Sa 12:00-14:00,19:00-22:00",,,,,0,,,,,,,79886848500011,"+33 2 38 53 71 12",https://www.chezdionysos.fr/,,0,45234,Orléans,"Centre-Val de Loire",24,Loiret,45,Orléans,45234,47.900351299961,1.9037317
209,"Gokuki coffee shop",,,"Tu-Sa 11:00-19:00",,,,,,,,,,,,,"+332 19 00 39 30",http://gokuki.fr/,,,45234,Orléans,"Centre-Val de Loire",24,Loiret,45,Orléans,45234,47.899112999962,1.9037087
210,"Le Petit Gone",,,"Mo-Su 09:00-22:00",,,,,,,,60,,,,49487637800014,+33662067802,https://lepetitgone.com/,,,45234,Orléans,"Centre-Val de Loire",24,Loiret,45,Orléans,45234,47.90522599996,1.8967029
211,O'Delices,,,,,,,,,,,,,,,93039959700010,,,,,45234,Orléans,"Centre-Val de Loire",24,Loiret,45,Orléans,45234,47.911567999959,1.9154029
212,"Bar la Ville de Chartres",,,,,,,,,,,,,,,,,,,,45234,Orléans,"Centre-Val de Loire",24,Loiret,45,Orléans,45234,47.918282299957,1.8988777
213,Moustache,,,,,,,,,,,,,,,95085937100011,,,,,45234,Orléans,"Centre-Val de Loire",24,Loiret,45,Orléans,45234,47.901973699961,1.9031998
214,"Le Gaulois",,,"Mo 18:30-22:30; Tu-Sa 11:45-14:00,18:30-22:30",,,,,,,,,,,,49232817400023,"+33 238532992",https://www.restaurant-gastronomique-orleans.fr/,,,45234,Orléans,"Centre-Val de Loire",24,Loiret,45,Orléans,45234,47.900418299961,1.9123286
215,"La Chopine",,,"Tu-Sa 18:00-01:00",,,,,,,,,,,,88106921500013,"+33 238 84 21 06",https://lachopine.fr/notre-carte/,,,45234,Orléans,"Centre-Val de Loire",24,Loiret,45,Orléans,45234,47.900625599961,1.9066491
216,"Sandwicherie du Pont Royal",,,,,,,,,,,,,,,85057084700010,"+33 238491521",,,,45234,Orléans,"Centre-Val de Loire",24,Loiret,45,Orléans,45234,47.894646599963,1.9034758
217,"Ramen House",,,"Mo-Sa 11:30-14:30,18:30-22:30",,,,,,,,,,,,88120771600013,,,,,45234,Orléans,"Centre-Val de Loire",24,Loiret,45,Orléans,45234,47.903618299961,1.9034171
218,"American Food",,,"Tu-Sa 11:30-14:30,19:00-23:00; Su,Mo 19:00-23:00",,,,,1,,,,,,,83216755500032,+33984307405,https://www.af-orleans.fr/,,,45234,Orléans,"Centre-Val de Loire",24,Loiret,45,Orléans,45234,47.899483099962,1.9065426
219,"Thai Food Orléans",,,"Mo-Sa 11:30-14:00, 18:30-22:00; Su 18:30-22:00",,,,,,,,,,,,84011059700019,"+33 9 52 38 47 37",https://thaifoodorleans.fr/,,,45234,Orléans,"Centre-Val de Loire",24,Loiret,45,Orléans,45234,47.901345199961,1.921477
220,"Cat's Eyes",,,"Tu-Sa 11:30-19:00",,,,,,,,,,,,90143781400014,"+332 38 73 20 78",,,,45234,Orléans,"Centre-Val de Loire",24,Loiret,45,Orléans,45234,47.901107499961,1.9048803
221,"La Petite Saison",,,"Mo-Su 12:00-14:00,18:30-22:00",0,1,,1,1,,,,0,,,88372439500016,"+33  2 38 70 07 80",https://petitesaison.fr/,,,45234,Orléans,"Centre-Val de Loire",24,Loiret,45,Orléans,45234,47.901602199961,1.9030293
222,Starbucks,,Starbucks,"Mo-Fr 08:00-20:00; Sa 08:30-20:00; Su 08:30-12:30",,,,,1,,,,,,Q37158,,,,,,45234,Orléans,"Centre-Val de Loire",24,Loiret,45,Orléans,45234,47.90691769996,1.9054786
223,"La Chancellerie",,,"Mo-Su 11:30-23:00",1,,,,,,,,,Q22944554,,53239595100017,"+33 238535754",https://www.restaurant-lachancellerie.fr/,,,45234,Orléans,"Centre-Val de Loire",24,Loiret,45,Orléans,45234,47.902040299961,1.9037326
224,"French Coffee Shop",,,"Mo 13:30-19:00; Tu 12:00-19:00; We-Fr 09:30-19:00; Sa 09:30-20:00",1,,,0,,,,,,,,80074795800018,,https://frenchcoffeeshop.com/shop/orleans,,,45234,Orléans,"Centre-Val de Loire",24,Loiret,45,Orléans,45234,47.900699699961,1.9063256
225,"Food truck",,,"Mo-Fr 12:00-14:00",,,,,,,,,0,,,,,,,,45234,Orléans,"Centre-Val de Loire",24,Loiret,45,Orléans,45234,47.893285099963,1.8947951
226,"Restaurant Angkor",,,"Mo-Sa 12:00-14:00,19:00-22:00",0,,,,,,,,,,,52271026800023,,,,,45234,Orléans,"Centre-Val de Loire",24,Loiret,45,Orléans,45234,47.900263099961,1.9092627
227,Paul,,Paul,,,,,,,,,,,,Q3370417,,"+33 2 38 52 12 10",https://www.paul.fr/,,,45234,Orléans,"Centre-Val de Loire",24,Loiret,45,Orléans,45234,47.90811909996,1.9064113
228,C'festin,,,"Mo-Fr 09:00-15:00,18:00-22:30",,,,,,,,,,,,45202793100040,"+33 238779575",,,,45234,Orléans,"Centre-Val de Loire",24,Loiret,45,Orléans,45234,47.919474399957,1.9192349
229,"El Djazair",,,,,,,,,,,,,,,,,http://www.eldjazairrestaurant.fr,,,45234,Orléans,"Centre-Val de Loire",24,Loiret,45,Orléans,45234,47.900412899961,1.9133197
230,Afro'Centre,,,,,,,,,,,,,,,,,,,,45234,Orléans,"Centre-Val de Loire",24,Loiret,45,Orléans,45234,47.900708399961,1.9170397
231,Paxton's,,,,0,,,,,,,,,,,32234538000024,,,,,45234,Orléans,"Centre-Val de Loire",24,Loiret,45,Orléans,45234,47.900009499961,1.9072391
232,"Restaurant Universitaire Guignebaud",,,"Mo-We 11:30-14:00; Th,Fr 11:30-13:30",,,,,,,,,,,,,,,,,45234,Orléans,"Centre-Val de Loire",24,Loiret,45,Orléans,45234,47.898895899962,1.9126164
233,"L'Atelier Papilles",,,"Mo-Su 06:30-20:00",,,,,,,,,,,,,,https://latelier-papilles.com/,,,45234,Orléans,"Centre-Val de Loire",24,Loiret,45,Orléans,45234,47.889101799964,1.89642
234,"Le bistrot de la Croix Morin",,,"Mo-Fr 08:00-18:00; Sa 10:00-14:00",,,,,,,,,,,,80413415300027,"+33 2 36 47 16 47",,,,45234,Orléans,"Centre-Val de Loire",24,Loiret,45,Orléans,45234,47.901964099961,1.897445
235,"Greenwich Café",,,"Tu-Sa 10:00-19:00",,,,,,,,,,,,,,,,,45234,Orléans,"Centre-Val de Loire",24,Loiret,45,Orléans,45234,47.899102499962,1.9035354
236,"La Demi-Lune",,,"Mo 07:00-20:00; Tu-Fr 06:30-20:00; Sa 08:00-20:00; Su 08:30-17:00",,,,,,,,,,,,81221720600018,"+33 2 38 62 39 54",,,,45234,Orléans,"Centre-Val de Loire",24,Loiret,45,Orléans,45234,47.898115899962,1.9046793
237,"Bowling Lounge Bar Club",,,,,,,,,,,,,,,,,,,,45234,Orléans,"Centre-Val de Loire",24,Loiret,45,Orléans,45234,47.898282899962,1.9085477
238,"Heureux comme Alexandre",,,"Mo-Fr 12:00-14:00,18:00-23:00; Sa-Su 12:00-15:00,18:00-22:30",0,,,,,,,30,,,,52211336400015,"+33 2 38 53 42 64",,,,45234,Orléans,"Centre-Val de Loire",24,Loiret,45,Orléans,45234,47.901913499961,1.9054018
239,"Mister Tacos",,,"Mo-Fr 11:30-14:00,18:30-22:00, Fr,Sa 11:30-14:00,18:30-23:00",0,,,,,,,,,,,79393852300024,"+33 238535887",https://mister-tacos-orleans.business.site/,,,45234,Orléans,"Centre-Val de Loire",24,Loiret,45,Orléans,45234,47.900507199961,1.9133892
240,L'Etna,,,"Mo-Tu 12:00-14:00; We-Th 12:00-14:00,19:00-22:00; Fr-Sa 12:00-14:00,19:00-22:30",,,,,,,,,,,,40906473000024,,https://etna-pizzeria.com/,,,45234,Orléans,"Centre-Val de Loire",24,Loiret,45,Orléans,45234,47.882967099965,1.9037131
241,"Au croc",,,"Mo-Sa 11:15-00:00; Su 14:00-23:00",,,,,,,,,,,,,+33238513412,,,,45234,Orléans,"Centre-Val de Loire",24,Loiret,45,Orléans,45234,47.886881999965,1.9056652
242,Neko,,,"Su 11:00-17:00; Tu-Sa 10:00-18:00",,,,,,,,,,,,98436093300019,,https://www.instagram.com/neko.orleans/,,,45234,Orléans,"Centre-Val de Loire",24,Loiret,45,Orléans,45234,47.899438199962,1.903975
243,Campanille,,,,,,,,,,,,,,,,,,,,45234,Orléans,"Centre-Val de Loire",24,Loiret,45,Orléans,45234,47.815701299981,1.9405488
244,"Le Dauphin",,,,,,,,,,,,,,,,,,,,45234,Orléans,"Centre-Val de Loire",24,Loiret,45,Orléans,45234,47.910208399959,1.9005123
245,"Chicken house",,,,,,,,,,,,,,,,,,,,45234,Orléans,"Centre-Val de Loire",24,Loiret,45,Orléans,45234,47.887013199964,1.9106934
246,"Lunch Box",,,"Mo-Sa 11:30-14:30",,,,,,,,,,,,98316025000012,,,,,45234,Orléans,"Centre-Val de Loire",24,Loiret,45,Orléans,45234,47.901429699961,1.9032651
247,"Le Centr'Hall",,,"Mo-Fr 08:00-20:00; Sa 08:00-21:00; Su 09:00-18:00",0,,,,,,,,,,,81252663000015,"+33 238532981",,,,45234,Orléans,"Centre-Val de Loire",24,Loiret,45,Orléans,45234,47.898991099962,1.906446
248,MEI,,,,,,,,,,,,,,,,"+33 2 34 32 82 29",,,,45234,Orléans,"Centre-Val de Loire",24,Loiret,45,Orléans,45234,47.892081999963,1.8886984
249,"Plaisir Phô",,,"Mo-Sa 11:30-14:30,18:30-22:00",0,,,,,,,,,,,82929350500014,"+33 238687723",https://plaisirpho.fr/,,,45234,Orléans,"Centre-Val de Loire",24,Loiret,45,Orléans,45234,47.90598769996,1.902046
250,Domino's,,Domino's,"Mo-Su 12:00-13:30,18:30-22:00",1,,,,1,,,,,,Q839466,,"+33 238435353",https://www.dominos.fr/magasin/orleans-centre_45000,,,45234,Orléans,"Centre-Val de Loire",24,Loiret,45,Orléans,45234,47.898390899962,1.9050183
251,"Blend Bistro Pub",,,"Mo-Su 12:00-14:30,18:00-24:00",,,,,,,,90,,,,,"+33 2 38 84 18 30",,,,45234,Orléans,"Centre-Val de Loire",24,Loiret,45,Orléans,45234,47.899686499962,1.906319
252,"Best Sandwichs",,,"Mo-Th 11:00-14:00,18:00-23:00; Fr 11:00-14:00,18:00-24:00; Su 12:00-14:30,17:00-23:00",,,,0,1,,,,0,,,48023087900037,"+33 238521195",,,0,45234,Orléans,"Centre-Val de Loire",24,Loiret,45,Orléans,45234,47.909342899959,1.9007319
253,"Di Na poli",,,"Tu-Th 11:00-14:00,18:00-22:30; Fr,Sa 11:00-14:00,18:00-23:00; Su 18:00-22:30",,,,0,,,,,,,,,,http://pizzeriadinapoli.fr,,,45234,Orléans,"Centre-Val de Loire",24,Loiret,45,Orléans,45234,47.909040899959,1.9011322
254,"Black and White",,,"Mo-Su 11:00-23:00",,,,,,,,,,,,89397474100017,"+339 87 01 68 28",https://restaurants.bnwburger.com/,,,45234,Orléans,"Centre-Val de Loire",24,Loiret,45,Orléans,45234,47.900276699961,1.9103823
255,"Flamme Viet",,,"Tu-Sa 11:30-14:30,19:00-22:30",,,,,,,,,,,,98097117000017,"+339 62 06 39 13",https://flammeviet.metro.rest/,,,45234,Orléans,"Centre-Val de Loire",24,Loiret,45,Orléans,45234,47.900392399961,1.9119656
256,"Q'naan fromage",,,"Mo-Su 11:00-02:00",,,,,,,,,,,,88844815600016,"+339 87 75 07 57",,,,45234,Orléans,"Centre-Val de Loire",24,Loiret,45,Orléans,45234,47.900412799961,1.9122641
257,Antoinette,,,"Tu-Fr 17:30-23:30; Sa 12:00-14:00,17:30-23:30",0,,,,,,,,,,,88198218500012,"+33 9 88 48 27 47",https://chez-antoinette.com/,,,45234,Orléans,"Centre-Val de Loire",24,Loiret,45,Orléans,45234,47.900332399961,1.911152
258,"La dernière séance",,,"Tu-Sa 15:00-24:00",,,,,,,,,,,,90355258600013,,,,,45234,Orléans,"Centre-Val de Loire",24,Loiret,45,Orléans,45234,47.902350599961,1.9027775
259,"Casa Pasta",,,"Tu-Th 12:00-14:00,19:00-22:00; Fr-Sa 12:00-14:00,19:00-22:00",,,,,,,,,,,,,"+33 7 83 04 53 17",,,,45234,Orléans,"Centre-Val de Loire",24,Loiret,45,Orléans,45234,47.881574999966,1.9011056
260,"Le Comptoir de Mamie Bigoud",,,"Mo-Th 11:30-21:30; Fr-Sa 11:30-22:30; Su 11:30-21:30",,,,,,,,,,,,83845728100015,"+33 2 38 68 93 59",https://comptoirmamiebigoude.com/restaurant-breton-orleans,,,45234,Orléans,"Centre-Val de Loire",24,Loiret,45,Orléans,45234,47.899157099962,1.9040011
261,"Chez les Jacquin",,,,,,,,,,,,,,,80314032600015,"+33 2 38 73 91 88",https://m.facebook.com/chezlesjacquin,,,45234,Orléans,"Centre-Val de Loire",24,Loiret,45,Orléans,45234,47.932017099954,1.8950159
262,"Bar des Tribunaux",,,"Mo-Fr 07:45-21:00",,,,,,,,,,,,52011968600035,,,,,45234,Orléans,"Centre-Val de Loire",24,Loiret,45,Orléans,45234,47.90468959996,1.905342
263,"Le Narval",,,,0,,,,,,,,,,,83406011300026,,http://www.bureau-tabac-orleans.fr,,,45234,Orléans,"Centre-Val de Loire",24,Loiret,45,Orléans,45234,47.887962899964,1.9049031
264,Maestro,,,"Mo-Sa 10:00-15:00,18:00-01:00",0,,,,,,,,,,,85344738100015,,,,,45234,Orléans,"Centre-Val de Loire",24,Loiret,45,Orléans,45234,47.900216799961,1.9097278
265,Greg',,,"Tu-Th 10:00-19:30; Fr-Sa 09:30-19:30; Su 08:30-13:00",,,,,,,,,,,,53513658400013,"+33 238810888",https://www.halleschatelet.fr/commerces/greg/,,,45234,Orléans,"Centre-Val de Loire",24,Loiret,45,Orléans,45234,47.898726299962,1.9056536
266,"Pizzeria Le Borsalino","CROUS Orléans-Tours",,"Mo-Fr 11:30-13:30",,,,,1,,,,0,,,,,https://www.crous-orleans-tours.fr/restaurant/pizzeria-le-borsalino/,,,45234,Orléans,"Centre-Val de Loire",24,Loiret,45,Orléans,45234,47.844036099975,1.9328925
267,"Le Khédive",,,,,,,,,,,,,,,84966102000032,,,,,45234,Orléans,"Centre-Val de Loire",24,Loiret,45,Orléans,45234,47.901514499961,1.9017813
268,"Le Châtelet",,,"Tu-Th 08:00-20:00; Fr 08:00-21:00; Sa 08:30-21:00",0,,,,,,,,,,,48162617400025,+33238536606,,,,45234,Orléans,"Centre-Val de Loire",24,Loiret,45,Orléans,45234,47.899153399962,1.9047207
269,"Sandwi'Chez Vous",,,,0,,,,,,,,,,,,,,,,45234,Orléans,"Centre-Val de Loire",24,Loiret,45,Orléans,45234,47.90618389996,1.8899459
270,"Blue Devils",,,"Mo-Su 14:00-01:00",,,,,,,,,,,,82093594800019,"+33 9 86 63 91 38",https://www.bluedevils.fr,,,45234,Orléans,"Centre-Val de Loire",24,Loiret,45,Orléans,45234,47.899326699962,1.9060675
271,Bagelstein,,,"Mo,Tu 09:00-15:00; We-Sa 09:00-18:00",,,,,,,,,,,,82409436100014,"+33 2 38 15 65 19",https://www.bagelstein.com/restaurant/orleans-dilliers/,,,45234,Orléans,"Centre-Val de Loire",24,Loiret,45,Orléans,45234,47.902359199961,1.9029148
272,"Il Don Vittorio",,,"Tu-Sa 12:00-14:30,19:00-22:30",,,,,,,,,,,,,,,,,45234,Orléans,"Centre-Val de Loire",24,Loiret,45,Orléans,45234,47.883275999965,1.8982364
273,"Green Café",,,"We-Sa 10:00-19:00; Tu 12:00-19:00",0,,,,,,,,,,,52817798300020,,,,,45234,Orléans,"Centre-Val de Loire",24,Loiret,45,Orléans,45234,47.900248799961,1.9099554
274,"Le Chien Fou",,,"Mo-Th 12:00-14:00,19:00-22:00; Fr,Sa 12:00-14:00,19:00-23:00; Su 12:00-14:00,19:00-22:00",,,,,,,,,,,,,+33238683573,https://www.lechienfouorleans.fr/,,,45234,Orléans,"Centre-Val de Loire",24,Loiret,45,Orléans,45234,47.898362299962,1.9046331
275,"Four Brothers",,,"Mo-Fr 11:00-14:00; 18:00-22:30; Sa 11:00-22:30; Su 16:00-22:30",,,,,,,,,0,,,75083314700036,"+332 38 73 22 75",,,,45234,Orléans,"Centre-Val de Loire",24,Loiret,45,Orléans,45234,47.908212899959,1.9037936
276,"La Mangeoire",,,"Mo-Th 19:00-22:00; Sa 12:00-14:00,19:00-23:00; Fr 12:00-14:00,19:00-22:30",1,,,,,,,,,,,92012190200018,+33238681538,https://www.lamangeoire-orleans.com/,,,45234,Orléans,"Centre-Val de Loire",24,Loiret,45,Orléans,45234,47.899585999962,1.9075017
277,"Le Sintra",,,,,,,,,,,,,,,84391417700012,"+33 238721572",,,,45234,Orléans,"Centre-Val de Loire",24,Loiret,45,Orléans,45234,47.899995099961,1.8824904
278,Hold'Up,,,,,,,,,,,,,,,91464043800018,"+332 38 24 51 18",,,,45234,Orléans,"Centre-Val de Loire",24,Loiret,45,Orléans,45234,47.910842699959,1.9191134
279,M.C.C,,,,,,,,,,,,,,,,,,,,45234,Orléans,"Centre-Val de Loire",24,Loiret,45,Orléans,45234,47.908726099959,1.914484
280,"Well' in Town",,,"Mo-Th 12:00-14:00,18:00-22:00; Fr,Sa 18:00-22:30,12:00-14:00",,,,,,,,,,,,90868654600015,"+33 2 18 88 94 74",https://www.wellintownpub.com/,,,45234,Orléans,"Centre-Val de Loire",24,Loiret,45,Orléans,45234,47.900156499961,1.9011606
281,"Ver Di Vin",,,"Tu 19:00-21:30; We-Fr 12:00-13:15,19:00-21:30; Sa 19:00-21:30",0,,,,,,,,,,,52953510600015,"+33 238544742",https://verdivin.com/,,,45234,Orléans,"Centre-Val de Loire",24,Loiret,45,Orléans,45234,47.900407599961,1.907454
282,"Bar des Halles",,,,,,,,,,,,,,,42010647800019,"+33 238627935",,,,45234,Orléans,"Centre-Val de Loire",24,Loiret,45,Orléans,45234,47.899467499962,1.9060114
283,"Bistrot Saint Germain",,,"Tu-Sa 09:00-18:00",,,,,,,,,,,,,"+33 2 34 32 58 76",,,,45234,Orléans,"Centre-Val de Loire",24,Loiret,45,Orléans,45234,47.900686599961,1.9028938
284,"La Renaissance",,,"Mo-Fr 08:00-20:00; Sa 09:00-20:00",1,,,,,wlan,,,,,,40019171400015,"+33 238533200",http://www.groupedegenne.com/restaurants-orleans/la-renaissance-orleans,,,45234,Orléans,"Centre-Val de Loire",24,Loiret,45,Orléans,45234,47.902095199961,1.904563
285,"La Dariole",,,"Tu-We 12:00-14:00; Th-Sa 12:00-14:00, 19:00-21:30",,,,,,,,30,,,,90959436800013,"+33 238772667",https://www.ladariole.fr/,,,45234,Orléans,"Centre-Val de Loire",24,Loiret,45,Orléans,45234,47.900674699961,1.9081148
286,Kokoko,,,"Tu-Sa 09:00-14:00,17:00-19:30; Su 09:00-14:00",,,,,,,,,,,,98181723200029,,,,,45234,Orléans,"Centre-Val de Loire",24,Loiret,45,Orléans,45234,47.900078499961,1.905651
287,"Le 222",,,"Tu-Sa 17:00-02:00",0,,,,,,,,,,,91197719700027,+33238420831,,,,45234,Orléans,"Centre-Val de Loire",24,Loiret,45,Orléans,45234,47.900205399961,1.9094721
288,Närenj,,,"Tu-Fr 12:00-13:30,19:00-20:30; Sa 12:00-14:00,19:30-20:30",0,,,,1,,,,,,,83820290100016,,https://www.narenj.fr/,,,45234,Orléans,"Centre-Val de Loire",24,Loiret,45,Orléans,45234,47.900339599961,1.9112713
289,"Au Bureau",,"Au Bureau","Mo-Su 11:00-24:00",1,1,0,,,,,200,,,Q100701566,49769672400036,"+33 2 38 62 91 09",https://www.aubureau-orleans.fr/,,,45234,Orléans,"Centre-Val de Loire",24,Loiret,45,Orléans,45234,47.899184499962,1.9042575
290,"Le Maroc",,,"Mo-Fr 12:00-19:20; Sa 12:00-22:00",0,,,,,,,,,,,51471764400017,"+33 2 38 54 42 05",,,,45234,Orléans,"Centre-Val de Loire",24,Loiret,45,Orléans,45234,47.908803399959,1.9038268
291,"Food Side",,,,,,,,,,,,,,,,,,,,45234,Orléans,"Centre-Val de Loire",24,Loiret,45,Orléans,45234,47.900812299961,1.9169541
292,"La Petite Italie",,,"Tu-Th 08:30-13:00,15:30-18:30; Fr 08:30-13:00,15:30-19:00; Sa 08:30-18:00",,,,,,,,,,,,52110304400025,"+33 236176568",https://www.boutique-lapetiteitalie.com,,,45234,Orléans,"Centre-Val de Loire",24,Loiret,45,Orléans,45234,47.909081199959,1.9010332
293,"Annabi Kebab",,,"Mo-Sa 11:30-24:00",0,,,,,,,,,,,,,,,,45234,Orléans,"Centre-Val de Loire",24,Loiret,45,Orléans,45234,47.908282899959,1.9009039
294,Delirium,,,"Mo-We 17:00-01:00; Th-Sa 17:00-03:00; Su 17:00-01:00",0,,,,,,,,,,,,"+339 73 88 96 44",https://check.fr/ville/orleans/etablissement/little-delirium/,,,45234,Orléans,"Centre-Val de Loire",24,Loiret,45,Orléans,45234,47.899986999961,1.9068156
295,"L'art en burger",,,"Mo-Sa 12:00-14:30,19:00-22:30; Su 19:00-22:30",,,,,,,,,,,,79809990900029,"+33 9 82 20 55 34",https://www.lartenburger.fr/,,,45234,Orléans,"Centre-Val de Loire",24,Loiret,45,Orléans,45234,47.902102199961,1.9024518
296,"La Grenouille",,,"Mo 08:30-14:30; Tu-Fr 08:00-20:00; Sa 08:30-20:00",0,,,,,,,,,,,91424318300011,"+33 238689851",,,,45234,Orléans,"Centre-Val de Loire",24,Loiret,45,Orléans,45234,47.903837999961,1.9040219
297,"Chez moi",,,"Mo-Sa 09:00-03:00, Su 11:30-03:00",,,,,,,,,,,,84214739900039,"+33 238521250",https://www.lechezmoi.com/,,,45234,Orléans,"Centre-Val de Loire",24,Loiret,45,Orléans,45234,47.899417899962,1.9068078
298,"Le Rive Droite",,,"Mo-Su 10:00-23:30",,,,,,,,,,,,34323880400029,+33238530729,https://www.le-rive-droite.com/,,,45234,Orléans,"Centre-Val de Loire",24,Loiret,45,Orléans,45234,47.898567799962,1.9071963
299,"La Tavola",,,"Tu-Fr 09:00-14:30,17:00-00:00; Sa 09:00-00:00; Su 09:00-13:00",,,,,,,,,,,,,"+33 238545990",,,,45234,Orléans,"Centre-Val de Loire",24,Loiret,45,Orléans,45234,47.898873199962,1.9059809
300,Sahtayn,,,"Tu-Th 11:45-14:00,18:45-22:00; Fr,Sa 11:45-14:00,18:45-22:30; Su 18:30-21:30",,,,,,,,,,,,91224130400019,"+33 987532629",,,,45234,Orléans,"Centre-Val de Loire",24,Loiret,45,Orléans,45234,47.894127199963,1.9066887
301,"Bagels Coffee",,,,,,,,,,,,,,,,,,,,45234,Orléans,"Centre-Val de Loire",24,Loiret,45,Orléans,45234,47.90787329996,1.9058248
302,Bombay,,,"Mo,We,Th 12:00-14:00,18:00-22:15; Fr,Sa 12:00-14:00,18:00-23:00; Su 12:00-14:00,18:00-22:30",0,,,,,,,,,,,,,,,,45234,Orléans,"Centre-Val de Loire",24,Loiret,45,Orléans,45234,47.900324899961,1.9121808
303,"Studio 16",,,"Mo-Th 11:00-22:30; Fri-Sa 11:00-23:00; Su 11:00-22:00",1,,,,,,,,,,,30009501500032,"+33 238716158",https://www.studio16orleans.com/,,,45234,Orléans,"Centre-Val de Loire",24,Loiret,45,Orléans,45234,47.902839899961,1.9043556
304,"La Fabrique",,,"Mo-We 11:30-23:00; Th 11:30-23:30; Fr-Sa 11:30-00:00; Su 15:00-23:00",0,,,,,,,,,,,84087482000011,"+33 9 54 33 49 25",,,,45234,Orléans,"Centre-Val de Loire",24,Loiret,45,Orléans,45234,47.900282899961,1.9104412
305,"Al Medina",,,"Tu-Sa 11:30-14:00,17:30-20:30",,,,,1,,,,,,,,"+33 9 81 87 96 79",https://al-medina-livraison-couscous-a-domicile-sur-place-ou.business.site/,,,45234,Orléans,"Centre-Val de Loire",24,Loiret,45,Orléans,45234,47.899728499961,1.9056596
306,"Sushi Ninja",,,"Tu-Su 11:00-14:30,18:00-23:00",,,,,,,,,,,,92852865200011,"+33 238837291",https://sushininja.fr/,,,45234,Orléans,"Centre-Val de Loire",24,Loiret,45,Orléans,45234,47.900399599961,1.9120317
307,"Hôtel le Tramway",,,"Mo-Fr 07:00-21:00; Sa-Su 09:00-21:00",,,,,,,,,,,,82492201700010,,,,,45234,Orléans,"Centre-Val de Loire",24,Loiret,45,Orléans,45234,47.90733989996,1.9036657
308,"Sushi Shop",,"Sushi Shop",,1,,,,1,,,,,,Q3505657,53491992300019,,https://www.sushishop.fr/fr/restaurant/orleans-royale,,,45234,Orléans,"Centre-Val de Loire",24,Loiret,45,Orléans,45234,47.900589099961,1.9038818
309,"New Antalya",,,,,,,,,,,,,,,45266719900015,"+33 238772225",,,,45234,Orléans,"Centre-Val de Loire",24,Loiret,45,Orléans,45234,47.901749799961,1.9001931
310,"Boci Ben's",,,"Tu-Su 11:30-14:00,18:00-24:00",,,,,,,,,,,,50346595700010,"+339 73 27 07 21",,,,45234,Orléans,"Centre-Val de Loire",24,Loiret,45,Orléans,45234,47.899968099961,1.906754
311,"La Petite Absinthe",,,,0,,,,,,,,,,,82333525200024,"+33 238545383",https://www.facebook.com/laPetiteAbsinthe/,,,45234,Orléans,"Centre-Val de Loire",24,Loiret,45,Orléans,45234,47.901242599961,1.905799
312,"Bistrot de l'Empereur",,,"Mo-Sa,PH 11:30-22:30",0,,,1,1,,,,,,,53143086600016,"+332 38 42 28 28",,,,45234,Orléans,"Centre-Val de Loire",24,Loiret,45,Orléans,45234,47.899600099962,1.907685
313,"Chez Jean Léon",,,"Tu-Sa 12:00-14:00,18:30-00:00; Su 11:30-14:00",0,,,,,,,,,,,87840193400012,"+33 238687714",https://www.restaurant-jean-leon.fr/,,,45234,Orléans,"Centre-Val de Loire",24,Loiret,45,Orléans,45234,47.898659299962,1.906386
314,Palazzio,,,,,,,,,,,,,,,,,,,,45234,Orléans,"Centre-Val de Loire",24,Loiret,45,Orléans,45234,47.90751419996,1.9143767
315,"La Buvette",,,"Tu-Sa 18:00-01:00",,,,,,,,,,,,91083315100012,"+33 238539195",,,,45234,Orléans,"Centre-Val de Loire",24,Loiret,45,Orléans,45234,47.899564899962,1.907441
316,"Ô Poudrier",,,,,,,,,,,,,,,,,http://www.opoudrier.com/,,,45234,Orléans,"Centre-Val de Loire",24,Loiret,45,Orléans,45234,47.900097099961,1.9059734
317,"Chicken Spot",,,,,,,,,,,,,,,52079337300017,"+33 238544020",,,,45234,Orléans,"Centre-Val de Loire",24,Loiret,45,Orléans,45234,47.901513399961,1.9005177
318,"La Table D'Antep",,,"Tu-Sa 12:00-15:00,18:00-22:00",,,,,,,,,,,,88297642600016,"+33 752869623",,,,45234,Orléans,"Centre-Val de Loire",24,Loiret,45,Orléans,45234,47.901732199961,1.9070735
319,McDonald's,,McDonald's,"Su-Th 09:00-24:00, Fr,Sa 09:00-01:00",1,,,,1,,,,1,,Q38076,,"+33 2 38 56 55 40",https://www.restaurants.mcdonalds.fr/mcdonalds-orleans-sud-rn20,,,45234,Orléans,"Centre-Val de Loire",24,Loiret,45,Orléans,45234,47.879635179798,1.9078302877923
320,"Restaurant Angkor",,,"Mo-Sa 12:00-14:00,19:00-22:00",0,,,,,,,,,,,52271026800023,+33238839776,,,,45234,Orléans,"Centre-Val de Loire",24,Loiret,45,Orléans,45234,47.900185199961,1.909289
321,Viaggio,,,,,,,,,,,,,,,,,,,,45234,Orléans,"Centre-Val de Loire",24,Loiret,45,Orléans,45234,47.900539299961,1.9053474
322,"Mac Ewans",,,"Tu-Sa 17:00-03:00",0,,,,,,,,,,,43251920500012,"+33 2 38 54 65 70",,,,45234,Orléans,"Centre-Val de Loire",24,Loiret,45,Orléans,45234,47.900068099961,1.9077365
323,"Manoir Pub",,,"We 17:30-01:00; Fr-Sa 17:30-02:00",0,,,,,,,,,,,80289006100012,+33238914106,https://www.orleanssession.fr/pubs-orleannais/le-manoir/,,,45234,Orléans,"Centre-Val de Loire",24,Loiret,45,Orléans,45234,47.900727699961,1.9077452
324,"Les Fils À Maman",,,"Mo-Th 12:00-14:00,19:00-22:00; Fr-Sa 12:00-14:00,19:00-22:30; Su 11:00-14:00,19:00-22:00",,,,,,,,,,,,81224268300017,"+33 238534409",https://www.lesfilsamaman.com/restaurants/orleans/,,,45234,Orléans,"Centre-Val de Loire",24,Loiret,45,Orléans,45234,47.900111099961,1.9096867
325,"Bar Bourgogne",,,,0,,,,,,,,,,,82190502300015,,,,,45234,Orléans,"Centre-Val de Loire",24,Loiret,45,Orléans,45234,47.900077399961,1.9079084
326,"Le Martroi",,,"Mo-Th 11:45-15:00,18:45-22:00; Fr-Sa 11:45-15:00,18:45-22:30; Su 11:45-15:00",1,,,,,,,,,,,90816684600018,"+33 238421500",https://lemartroi.fr/,,,45234,Orléans,"Centre-Val de Loire",24,Loiret,45,Orléans,45234,47.902833299961,1.9045786
327,"Sable de Loire",,,"Mo-Sa 11:00-23:30; Su 12:00-23:30",,,,,,,,,,,,75039349800027,+33238451345,,,,45234,Orléans,"Centre-Val de Loire",24,Loiret,45,Orléans,45234,47.894672599963,1.9069984
328,"Le juke bar",,,"Mo-Su 17:00-01:00",0,,,,,,,,,,,,,,,,45234,Orléans,"Centre-Val de Loire",24,Loiret,45,Orléans,45234,47.900022299961,1.9074446
329,"Restaurant Universitaire Le Forum",,,"Mo-Fr 11:30-13:30",,,,,,,,,,,,18450021300188,,https://www.crous-orleans-tours.fr/restaurant/le-forum/,,,45234,Orléans,"Centre-Val de Loire",24,Loiret,45,Orléans,45234,47.843213499975,1.9359178
330,L'Orientale,,,"Tu-Su 12:00-14:00,19:00-22:30",,,,,1,,,,,,,43889918900015,+33238817379,https://lorientale-restaurant-orleans.metro.bar,,,45234,Orléans,"Centre-Val de Loire",24,Loiret,45,Orléans,45234,47.901051599961,1.8931719
331,"L'école des salles gosses",,,,,,,,,,,,,,,83855447500015,"+33 2 38 54 05 16",https://www.lecole-des-sales-gosses.com/,,,45234,Orléans,"Centre-Val de Loire",24,Loiret,45,Orléans,45234,47.90465779996,1.9118159
332,"Mare Nostrum",,,"Mo-Th 12:00-20:00; Fr-Sa 12:00-15:00,18:00-22:30",,,,,,,,,0,,,,"+33 7 68 65 48 86",,,,45234,Orléans,"Centre-Val de Loire",24,Loiret,45,Orléans,45234,47.901711099961,1.9052489
333,Dundee,,,,,,,,,,,,,,,79390303000021,"+33 238831096",https://dundee-resto-pub.business.site/,,,45234,Orléans,"Centre-Val de Loire",24,Loiret,45,Orléans,45234,47.902540699961,1.9024661
334,"Le Bergerac",,,,0,,,,,,,,,,,34866083800031,,,,,45234,Orléans,"Centre-Val de Loire",24,Loiret,45,Orléans,45234,47.914004299958,1.8958811
335,"La Pipe de Bois",,,"Tu-Fr 07:30-20:00; Sa 08:30-19:30",0,,,,,,,,,,,90418823200014,"+33 238798533",,,0,45234,Orléans,"Centre-Val de Loire",24,Loiret,45,Orléans,45234,47.899866999961,1.9064809
336,Urucum,,,"Tu-Sa 12:00-15:00,18:00-22:30",,,,,,,,,,,,,,,,,45234,Orléans,"Centre-Val de Loire",24,Loiret,45,Orléans,45234,47.899342799962,1.9067476
337,"Grape Bar",,,,,,,,,,,,,,,82373748100296,"+332 38 54 23 11",,,,45234,Orléans,"Centre-Val de Loire",24,Loiret,45,Orléans,45234,47.90628629996,1.8978459
338,"La Boucherie",,"La Boucherie","Su-Th 12:00-14:30,19:00-22:00; Fr,Sa 12:00-14:30,19:00-23:00",,,,,,,,,,,Q21427479,,"+33 2 38 600 600",https://www.la-boucherie.fr/restaurants/orleans-olivet-45/,,,45234,Orléans,"Centre-Val de Loire",24,Loiret,45,Orléans,45234,47.878075199967,1.9099354
339,Pokawa,,Pokawa,"Su-Tu 11:30-14:30, 18:00-22:30; We-Sa 11:30-22:30",,,,,1,,,,,,Q123018553,98383134800013,"+33 238844119",https://restaurants.pokawa.com/poke-bowl-orleans/,,,45234,Orléans,"Centre-Val de Loire",24,Loiret,45,Orléans,45234,47.899001899962,1.9067007
340,"Cuisine centrale",,,,,,,,,,,,,,,,,,,,45234,Orléans,"Centre-Val de Loire",24,Loiret,45,Orléans,45234,47.876594599967,1.9101569
341,Taverne,,,"Su-Th 09:00-01:00, Fr,Sa 09:00-03:00",,,,,,,,,,,,,"+33 2 38 43 81 73",https://taverne-brasserie.fr/,,,45234,Orléans,"Centre-Val de Loire",24,Loiret,45,Orléans,45234,47.898423399962,1.9085144
342,"Le Mangal",,,"Tu-Fr 12:00-14:00,19:00-22:00; Sa 12:00-22:30",0,,,,,,,,,,,87788795000013,+33695213358,https://le-mangal-orleans.eatbu.com,,,45234,Orléans,"Centre-Val de Loire",24,Loiret,45,Orléans,45234,47.90796679996,1.9037692
343,"La Capitainerie",,,24/7,,,,,,,,,,,,,,,,,45234,Orléans,"Centre-Val de Loire",24,Loiret,45,Orléans,45234,47.898226449962,1.9178953
344,"Piraat Café",,,"Mo-Fr 16:00-01:00; Sa-Su 15:00-01:00",1,,,,,,,,,,,90419430500010,"+33 9 66 92 12 32",,,,45234,Orléans,"Centre-Val de Loire",24,Loiret,45,Orléans,45234,47.898189199962,1.9085444
345,"Le Drop",,,,,,,,,,,,,,,81335005500014,,,,,45234,Orléans,"Centre-Val de Loire",24,Loiret,45,Orléans,45234,47.900793199961,1.9167854
346,"Glaces Moustache Orléans Artisan Glacier",,,"Mo-Th 12:00-21:30; Fr 12:00-23:00; Sa 13:00-23:00; Su 13:00-21:00",1,,,1,,,,,,,,88520057600019,"+33 9 88 49 54 14",https://www.facebook.com/moustacheorleans/,,,45234,Orléans,"Centre-Val de Loire",24,Loiret,45,Orléans,45234,47.901611299961,1.908191
347,"Le Calumet",,,"Mo-Sa 07:00-20:00",,,,,,,,,,,,50953744500033,"+33 238661266",,,,45234,Orléans,"Centre-Val de Loire",24,Loiret,45,Orléans,45234,47.894553699963,1.9070039
348,"Café des Beaux Arts",,,,,,,,,,,,,,,87945731500015,"+33 238626365",https://cafedesbeauxarts.fr/,,,45234,Orléans,"Centre-Val de Loire",24,Loiret,45,Orléans,45234,47.902545999961,1.9109406
349,"La petite Mandchourie",,,"Mo-Sa 11:00-21:30",,,,,,,,,,,,98769657200013,,,,,45234,Orléans,"Centre-Val de Loire",24,Loiret,45,Orléans,45234,47.901426299961,1.9032192
350,L'Italien,,,"Mo 19:00-00:00; Tu-Fr 11:00-14:30,19:00-00:00,Sa-Su 19:00-00:00",,,,,,,,,,,,,"+33 2 38 54 13 67",https://shaggybizzon.wixsite.com/pizzerialitalien/,,,45234,Orléans,"Centre-Val de Loire",24,Loiret,45,Orléans,45234,47.901105199961,1.89185
351,"Sandwicherie du Loiret",,,,,,,,,,,,,,,,,,,,45234,Orléans,"Centre-Val de Loire",24,Loiret,45,Orléans,45234,47.901187799961,1.8927127
352,"Le Reinitas",,,,,,,,,,,,,,,91844186600012,,,,,45234,Orléans,"Centre-Val de Loire",24,Loiret,45,Orléans,45234,47.909610799959,1.8950145
353,"Le Lift",,,"We-Su 12:00-14:00,19:30-23:00",1,,,,,,,80,,,,,"+33 2 38 53 63 48",https://www.restaurant-le-lift.com/,,,45234,Orléans,"Centre-Val de Loire",24,Loiret,45,Orléans,45234,47.898647199962,1.9091705
354,Stratto,,,,1,,,,,,,,,,,,"+33 238629466",,,,45234,Orléans,"Centre-Val de Loire",24,Loiret,45,Orléans,45234,47.90503839996,1.9044904
355,Meat,,,,0,,,,,,,,,,,52811707000029,,,,,45234,Orléans,"Centre-Val de Loire",24,Loiret,45,Orléans,45234,47.900202699961,1.9093838
356,Kimiko,,,"Tu-Fr 11:30-14:00,18:00-21:00; Sa 11:30-14:00,18:00-22:00",,,,,,,,,,,,91445450900011,,https://www.kimiko-orleans.fr/,,,45234,Orléans,"Centre-Val de Loire",24,Loiret,45,Orléans,45234,47.900663099961,1.9154296
357,Yoyoshi,,,,,,,,,,,,,,,81914313200010,+33967275069,,,,45234,Orléans,"Centre-Val de Loire",24,Loiret,45,Orléans,45234,47.916245999958,1.9004259
358,"Bonne Pioche",,,"Tu-Th 17:00-00:00; Fr-Sa 17:00-01:00; Su 12:00-16:00",,,,,,,,,0,,,,+33950020997,https://m.facebook.com/bonnepiocheorleans,,,45234,Orléans,"Centre-Val de Loire",24,Loiret,45,Orléans,45234,47.898030799962,1.9050773
359,"Papilles en herbes",,,"Th-Mo 12:00-13:00, 19:30-21:00; We 19:30-21:00",,,,,,,,,,,,84320267200013,,https://papilles-en-herbes.eatbu.com/,,,45234,Orléans,"Centre-Val de Loire",24,Loiret,45,Orléans,45234,47.886624599965,1.8881888
360,Adalya,,,"Mo-Su 11:00-01:00",,,,,,,,,,,,43018777300014,,,,,45234,Orléans,"Centre-Val de Loire",24,Loiret,45,Orléans,45234,47.918192799957,1.8982391
361,"L'Orient Express",,,,1,,,,1,,,,1,,,53918979500013,"+33 2 38 62 83 79",,,,45234,Orléans,"Centre-Val de Loire",24,Loiret,45,Orléans,45234,47.90764029996,1.9037355
362,"Speed Burger",,,,,,,,,,,,,,,,,,,,45234,Orléans,"Centre-Val de Loire",24,Loiret,45,Orléans,45234,47.898923699962,1.9027019
363,"Une Porte sur Kaboul",,,"Tu-Sa 12:00-14:30,19:00-22:30",,,,,,,,,,,,81943234500018,,,,,45234,Orléans,"Centre-Val de Loire",24,Loiret,45,Orléans,45234,47.898576199962,1.90481
364,"Le Key West",,,"Tu-Sa 17:00-01:00, Su,Mo 17:00-23:00",0,,,,,wlan,,,,,,42160807600020,,,,,45234,Orléans,"Centre-Val de Loire",24,Loiret,45,Orléans,45234,47.900251699961,1.9100312
365,"Les Dix Fûts",,,"Th-Su 15:00-17:30",,,,,,,,,,,,82360113300015,"+33 2 38 54 22 58",https://www.lesdixfuts.fr/accueil-cave-bar-biere/orleans-le-shop-bieres-artisanales/,,,45234,Orléans,"Centre-Val de Loire",24,Loiret,45,Orléans,45234,47.900241999961,1.9101292
366,"Le Bidule",,,"Tu-We 12:00-14:00; Th-Fr 12:00-14:00,19:00-22:00; Sa 12:00-23:00",,,1,,,,,,,,,83305906600021,"+33 7 84 94 66 46",,,,45234,Orléans,"Centre-Val de Loire",24,Loiret,45,Orléans,45234,47.900091399961,1.9064272
367,Mijana,,,"Tu-Sa 10:00-13:30,17:00-21:30; Su 09:30-12:00",1,,,,1,,,,,,,50264799300026,+33238620202,http://mijanaresto.com,,,45234,Orléans,"Centre-Val de Loire",24,Loiret,45,Orléans,45234,47.898617099962,1.9057683
368,"La Cantine",,,"Tu-Su 12:00-14:00,19:00-23:00",,,,,1,,,,,,,83917392900036,"+33 2 38 42 77 59",http://www.restaurant-la-cantine.com,,,45234,Orléans,"Centre-Val de Loire",24,Loiret,45,Orléans,45234,47.899155699962,1.9092736
369,Okla,,,"Tu-Sa 11:30-14:30,18:00-23:00; Su 18:00-23:00",,,,,,,,,,,,,,,,,45234,Orléans,"Centre-Val de Loire",24,Loiret,45,Orléans,45234,47.886864199965,1.9106897
370,MaGa,,,"Mo-Fr 12:00-14:30",,,,,,,,,,,,85204260500018,"+33 238543080",https://magarestaurant.fr/,,,45234,Orléans,"Centre-Val de Loire",24,Loiret,45,Orléans,45234,47.900478199961,1.913046
371,"Le Fontenoy",,,,,,,,,,,,,,,82959922400013,,,,,45234,Orléans,"Centre-Val de Loire",24,Loiret,45,Orléans,45234,47.901231999961,1.8929895
372,"Le cherry's",,,,,,,,,,,,,,,,"+33 2 38 53 84 29",,,,45234,Orléans,"Centre-Val de Loire",24,Loiret,45,Orléans,45234,47.900391299961,1.9132535
373,L'Alchimie,,,"Tu-Th 18:00-00:00; Fr-Sa 18:00-01:00",,,,,,,,,,,,87810421500016,"+33 7 49 16 22 84",https://www.lalchimie-orleans.com/,,,45234,Orléans,"Centre-Val de Loire",24,Loiret,45,Orléans,45234,47.899658099962,1.909287
374,"Pizza OhTerroir",,,"Mo-Su 11:30-14:00,18:30-22:00",,,,,,,,,,,,,+33238786324,https://www.pizzaohterroir.com/,,,45234,Orléans,"Centre-Val de Loire",24,Loiret,45,Orléans,45234,47.898444699962,1.9065167
375,"Le Petit Barcelone",,,"Mo-Sa 17:00-01:00",0,,,,,,,,,,,83485917500020,+33953535505,,,,45234,Orléans,"Centre-Val de Loire",24,Loiret,45,Orléans,45234,47.900205399961,1.9096135
376,"Chicken Nür",,,,,,,,,,,,,,,,,,,,45234,Orléans,"Centre-Val de Loire",24,Loiret,45,Orléans,45234,47.902048899961,1.8977088
377,"Le Xaintrailles",,,"Mo-Fr 12:00-14:30",,,,,,,,,,,,33921616000012,"+33 2 38 53 91 46",https://le-xaintrailles.edan.io/,,,45234,Orléans,"Centre-Val de Loire",24,Loiret,45,Orléans,45234,47.90660359996,1.8929455
378,Pokesushi,,,"We-Mo 11:30-15:00,18:30-23:00",,,,,,,,,,,,88393020800011,"+33 238700831",https://www.pokesushi.fr/,,,45234,Orléans,"Centre-Val de Loire",24,Loiret,45,Orléans,45234,47.898398699962,1.9053456
379,"Les Ventres Jaunes",,,,0,,,,,,,,,,,,,,,,45234,Orléans,"Centre-Val de Loire",24,Loiret,45,Orléans,45234,47.900113699961,1.9097604
380,"Nines Store",,,"Tu-Sa 10:00-19:00",,,,,,,,,,,,90407629600014,"+33 238817955",,,,45234,Orléans,"Centre-Val de Loire",24,Loiret,45,Orléans,45234,47.900403899961,1.9028128
381,"Panda Grill",,,"We-Mo 12:00-14:30,19:00-22:30",,,,,,,,,,,,,"+33 2 38 44 06 40",,,,45234,Orléans,"Centre-Val de Loire",24,Loiret,45,Orléans,45234,47.882219299966,1.8996214
